{"type":"FeatureCollection","features":[{"type":"Feature","properties":{},"geometry":{"type":"MultiPolygon","coordinates":[[[[30.450311,50.498108],[30.450108,50.497988],[30.449893,50.497877],[30.449667,50.497775],[30.449431,50.497683],[30.449187,50.497601],[30.448934,50.497529],[30.448674,50.497467],[30.448409,50.497417],[30.448139,50.497378],[30.447866,50.497351],[30.447591,50.497334],[30.447314,50.49733],[30.447037,50.497336],[30.446762,50.497355],[30.44649,50.497385],[30.446221,50.497426],[30.445956,50.497478],[30.445698,50.497541],[30.445447,50.497615],[30.445203,50.497699],[30.444969,50.497793],[30.444745,50.497897],[30.444533,50.49801],[30.444332,50.498131],[30.444144,50.49826],[30.44397,50.498398],[30.44381,50.498542],[30.443665,50.498692],[30.443536,50.498848],[30.443423,50.499009],[30.443327,50.499175],[30.443249,50.499344],[30.443188,50.499516],[30.443144,50.49969],[30.443119,50.499866],[30.443111,50.500043],[30.443122,50.500219],[30.443151,50.500394],[30.443197,50.500568],[30.443262,50.50074],[30.443344,50.500909],[30.443443,50.501073],[30.443558,50.501234],[30.44369,50.501389],[30.443819,50.501519],[30.443734,50.501595],[30.443589,50.501746],[30.44346,50.501902],[30.443348,50.502063],[30.443252,50.502228],[30.443173,50.502398],[30.443112,50.50257],[30.443068,50.502744],[30.443043,50.50292],[30.443036,50.503096],[30.443046,50.503273],[30.443075,50.503448],[30.443122,50.503622],[30.443186,50.503794],[30.443268,50.503962],[30.443367,50.504127],[30.443483,50.504287],[30.443615,50.504442],[30.443762,50.504592],[30.443925,50.504735],[30.444102,50.50487],[30.444292,50.504998],[30.444495,50.505118],[30.44471,50.505229],[30.444936,50.505331],[30.445172,50.505424],[30.445417,50.505506],[30.445669,50.505578],[30.445833,50.505616],[30.445805,50.505646],[30.445676,50.505802],[30.445563,50.505963],[30.445467,50.506129],[30.445389,50.506298],[30.445327,50.50647],[30.445284,50.506644],[30.445259,50.50682],[30.445251,50.506996],[30.445262,50.507173],[30.445291,50.507348],[30.445337,50.507522],[30.445402,50.507694],[30.445405,50.5077],[30.445296,50.507832],[30.445183,50.507993],[30.445087,50.508159],[30.445009,50.508328],[30.444947,50.5085],[30.444904,50.508674],[30.444878,50.50885],[30.444871,50.509026],[30.444882,50.509203],[30.44491,50.509378],[30.444957,50.509552],[30.445022,50.509724],[30.445104,50.509892],[30.445203,50.510057],[30.445318,50.510217],[30.44545,50.510372],[30.445598,50.510522],[30.44576,50.510665],[30.445937,50.5108],[30.446128,50.510928],[30.446331,50.511048],[30.446546,50.511159],[30.446772,50.511261],[30.447008,50.511354],[30.447063,50.511372],[30.447035,50.511422],[30.446956,50.511591],[30.446895,50.511763],[30.446852,50.511937],[30.446826,50.512113],[30.446819,50.512289],[30.446829,50.512466],[30.446857,50.512633],[30.446795,50.512697],[30.446666,50.512853],[30.446554,50.513014],[30.446458,50.51318],[30.446379,50.513349],[30.446318,50.513521],[30.446274,50.513695],[30.446249,50.513871],[30.446242,50.514047],[30.446252,50.514224],[30.446281,50.514399],[30.446328,50.514573],[30.446356,50.51465],[30.44634,50.514679],[30.446261,50.514848],[30.446261,50.514849],[30.446093,50.514964],[30.445919,50.515101],[30.445759,50.515245],[30.445614,50.515396],[30.445485,50.515552],[30.445373,50.515713],[30.445277,50.515879],[30.445198,50.516048],[30.445137,50.51622],[30.445093,50.516394],[30.445068,50.51657],[30.44506,50.516746],[30.445071,50.516923],[30.4451,50.517098],[30.445147,50.517272],[30.445211,50.517444],[30.445293,50.517612],[30.445352,50.51771],[30.445211,50.517856],[30.445082,50.518012],[30.444969,50.518173],[30.444873,50.518339],[30.444795,50.518508],[30.444733,50.51868],[30.44469,50.518854],[30.444664,50.51903],[30.444657,50.519206],[30.444668,50.519383],[30.444697,50.519558],[30.444743,50.519732],[30.444808,50.519904],[30.44489,50.520072],[30.444989,50.520237],[30.445105,50.520397],[30.445236,50.520552],[30.445384,50.520702],[30.445547,50.520845],[30.445724,50.52098],[30.445914,50.521108],[30.446117,50.521228],[30.446332,50.521339],[30.446558,50.521441],[30.446619,50.521465],[30.44663,50.521481],[30.446762,50.521636],[30.44691,50.521785],[30.447073,50.521928],[30.447249,50.522064],[30.44744,50.522192],[30.447643,50.522312],[30.447858,50.522423],[30.448084,50.522525],[30.44832,50.522617],[30.448565,50.522699],[30.448818,50.522771],[30.448951,50.522803],[30.448978,50.522847],[30.449093,50.523007],[30.449225,50.523163],[30.449373,50.523312],[30.449536,50.523455],[30.449712,50.52359],[30.449903,50.523719],[30.450106,50.523838],[30.450321,50.52395],[30.450547,50.524051],[30.450783,50.524144],[30.450957,50.524202],[30.450965,50.524251],[30.450969,50.524267],[30.450962,50.524271],[30.450774,50.5244],[30.4506,50.524537],[30.45044,50.524681],[30.450295,50.524832],[30.450166,50.524988],[30.450054,50.525149],[30.449958,50.525315],[30.449879,50.525484],[30.449818,50.525656],[30.449774,50.52583],[30.449749,50.526006],[30.449741,50.526182],[30.449752,50.526359],[30.449781,50.526534],[30.449828,50.526708],[30.449892,50.52688],[30.449974,50.527048],[30.450073,50.527213],[30.450189,50.527373],[30.450321,50.527529],[30.450469,50.527678],[30.450631,50.527821],[30.450808,50.527956],[30.450999,50.528085],[30.451202,50.528204],[30.451417,50.528316],[30.451643,50.528417],[30.451879,50.52851],[30.452124,50.528592],[30.452377,50.528664],[30.452637,50.528725],[30.452902,50.528775],[30.453172,50.528814],[30.453445,50.528842],[30.453721,50.528858],[30.453998,50.528863],[30.454275,50.528856],[30.45455,50.528838],[30.454823,50.528808],[30.455092,50.528767],[30.455356,50.528714],[30.455547,50.528668],[30.455555,50.528672],[30.455791,50.528764],[30.456036,50.528846],[30.456289,50.528918],[30.456549,50.528979],[30.456814,50.529029],[30.457084,50.529068],[30.457358,50.529096],[30.457633,50.529112],[30.45791,50.529117],[30.458187,50.52911],[30.458462,50.529092],[30.458735,50.529062],[30.458815,50.52905],[30.458926,50.529056],[30.459203,50.529061],[30.45948,50.529054],[30.459755,50.529036],[30.460028,50.529006],[30.460297,50.528965],[30.460562,50.528912],[30.46082,50.528849],[30.461072,50.528775],[30.461315,50.528691],[30.461441,50.52864],[30.461609,50.528657],[30.461885,50.528674],[30.462162,50.528678],[30.462438,50.528671],[30.462714,50.528653],[30.462987,50.528623],[30.463256,50.528582],[30.46352,50.52853],[30.463779,50.528467],[30.46403,50.528393],[30.464274,50.528309],[30.464508,50.528215],[30.464732,50.528111],[30.464945,50.527998],[30.465146,50.527877],[30.465334,50.527747],[30.465508,50.52761],[30.465668,50.527466],[30.465812,50.527315],[30.465941,50.527159],[30.466054,50.526998],[30.46615,50.526832],[30.466229,50.526663],[30.46629,50.526491],[30.466333,50.526317],[30.466359,50.526141],[30.466366,50.525965],[30.466355,50.525788],[30.466326,50.525613],[30.466279,50.525439],[30.466215,50.525267],[30.466183,50.525203],[30.466368,50.525206],[30.466442,50.525204],[30.466638,50.525232],[30.466911,50.52526],[30.467187,50.525276],[30.467464,50.525281],[30.46774,50.525274],[30.468016,50.525255],[30.468289,50.525226],[30.468558,50.525184],[30.468822,50.525132],[30.469081,50.525069],[30.469332,50.524995],[30.469575,50.524911],[30.46981,50.524817],[30.470034,50.524713],[30.470246,50.5246],[30.470447,50.524479],[30.470635,50.524349],[30.47081,50.524212],[30.470969,50.524068],[30.471114,50.523918],[30.471243,50.523761],[30.471356,50.5236],[30.471452,50.523435],[30.47153,50.523266],[30.471557,50.523189],[30.471673,50.523098],[30.471833,50.522954],[30.471977,50.522803],[30.472106,50.522647],[30.472219,50.522486],[30.472315,50.52232],[30.472394,50.522151],[30.472455,50.521979],[30.472498,50.521805],[30.472523,50.521629],[30.472531,50.521453],[30.47252,50.521276],[30.472491,50.521101],[30.472444,50.520927],[30.47238,50.520755],[30.472298,50.520587],[30.472198,50.520422],[30.472178,50.520394],[30.472145,50.520269],[30.47208,50.520097],[30.472004,50.519942],[30.472151,50.519999],[30.472396,50.520081],[30.472649,50.520153],[30.472909,50.520214],[30.473174,50.520264],[30.473444,50.520303],[30.473718,50.520331],[30.473993,50.520347],[30.47427,50.520352],[30.474547,50.520345],[30.474822,50.520326],[30.475095,50.520297],[30.475364,50.520255],[30.475628,50.520203],[30.475887,50.52014],[30.476138,50.520066],[30.476381,50.519982],[30.476616,50.519888],[30.476839,50.519784],[30.477052,50.519671],[30.477253,50.51955],[30.477441,50.51942],[30.477615,50.519283],[30.477775,50.519139],[30.47792,50.518988],[30.478049,50.518832],[30.478161,50.518671],[30.478257,50.518505],[30.478336,50.518336],[30.478397,50.518164],[30.47844,50.51799],[30.478466,50.517814],[30.478473,50.517638],[30.478462,50.517461],[30.478433,50.517286],[30.478386,50.517112],[30.478322,50.51694],[30.47824,50.516772],[30.47814,50.516607],[30.478025,50.516447],[30.477892,50.516292],[30.477745,50.516142],[30.477582,50.516],[30.477405,50.515864],[30.477215,50.515736],[30.477011,50.515616],[30.476796,50.515505],[30.47657,50.515403],[30.476334,50.515311],[30.476089,50.515229],[30.475837,50.515157],[30.475577,50.515096],[30.475312,50.515046],[30.475042,50.515007],[30.474768,50.514979],[30.474493,50.514963],[30.474216,50.514958],[30.473939,50.514965],[30.473664,50.514984],[30.473391,50.515013],[30.473122,50.515055],[30.472858,50.515107],[30.472599,50.51517],[30.472348,50.515244],[30.472105,50.515328],[30.471871,50.515422],[30.471647,50.515526],[30.471434,50.515639],[30.471233,50.51576],[30.471045,50.51589],[30.470871,50.516027],[30.470711,50.516171],[30.470567,50.516321],[30.470438,50.516478],[30.470325,50.516639],[30.470229,50.516804],[30.47015,50.516974],[30.470089,50.517146],[30.470046,50.51732],[30.470021,50.517496],[30.470013,50.517672],[30.470024,50.517848],[30.470053,50.518024],[30.4701,50.518198],[30.470164,50.51837],[30.47024,50.518525],[30.470093,50.518468],[30.469848,50.518386],[30.469595,50.518314],[30.469335,50.518253],[30.46907,50.518202],[30.4688,50.518163],[30.468527,50.518136],[30.468251,50.51812],[30.467974,50.518115],[30.467899,50.518117],[30.468012,50.518071],[30.468236,50.517968],[30.468449,50.517855],[30.46865,50.517733],[30.468838,50.517604],[30.469012,50.517467],[30.469172,50.517323],[30.469317,50.517172],[30.469446,50.517016],[30.469558,50.516855],[30.469654,50.516689],[30.469733,50.51652],[30.469794,50.516348],[30.469837,50.516174],[30.469863,50.515998],[30.46987,50.515821],[30.469859,50.515645],[30.46983,50.51547],[30.469784,50.515296],[30.469719,50.515124],[30.469637,50.514955],[30.469538,50.514791],[30.469422,50.51463],[30.46929,50.514475],[30.469142,50.514326],[30.46898,50.514183],[30.468803,50.514048],[30.468612,50.513919],[30.468409,50.5138],[30.468194,50.513689],[30.467968,50.513587],[30.467732,50.513494],[30.467487,50.513412],[30.467234,50.51334],[30.466975,50.513279],[30.466709,50.513229],[30.46644,50.51319],[30.466166,50.513162],[30.465891,50.513146],[30.465614,50.513142],[30.465548,50.513143],[30.465581,50.51313],[30.465805,50.513026],[30.466017,50.512913],[30.466218,50.512792],[30.466406,50.512662],[30.46658,50.512525],[30.46674,50.512381],[30.466885,50.512231],[30.467014,50.512075],[30.467126,50.511913],[30.467222,50.511748],[30.467301,50.511579],[30.467362,50.511407],[30.467405,50.511232],[30.467431,50.511057],[30.467438,50.51088],[30.467427,50.510704],[30.467399,50.510528],[30.467352,50.510354],[30.467287,50.510183],[30.467205,50.510014],[30.467106,50.509849],[30.46699,50.509689],[30.46697,50.509665],[30.466962,50.509645],[30.46688,50.509476],[30.466781,50.509311],[30.466665,50.509151],[30.466533,50.508996],[30.466432,50.508894],[30.466436,50.508869],[30.466443,50.508693],[30.466432,50.508516],[30.466403,50.508341],[30.466356,50.508167],[30.466328,50.508091],[30.466469,50.508035],[30.466518,50.508064],[30.466733,50.508175],[30.466959,50.508277],[30.467195,50.508369],[30.46744,50.508451],[30.467692,50.508523],[30.467952,50.508584],[30.468217,50.508634],[30.468487,50.508673],[30.468761,50.508701],[30.469036,50.508717],[30.469313,50.508722],[30.469589,50.508715],[30.469865,50.508697],[30.470137,50.508667],[30.470406,50.508625],[30.470671,50.508573],[30.470929,50.50851],[30.47118,50.508436],[30.471227,50.50842],[30.471249,50.508439],[30.471426,50.508575],[30.471617,50.508703],[30.47182,50.508823],[30.472035,50.508934],[30.472261,50.509036],[30.472497,50.509128],[30.472742,50.50921],[30.472995,50.509282],[30.473254,50.509343],[30.47352,50.509393],[30.473789,50.509432],[30.474063,50.50946],[30.474338,50.509476],[30.474615,50.509481],[30.474892,50.509474],[30.475167,50.509455],[30.47544,50.509426],[30.475709,50.509384],[30.475973,50.509332],[30.476231,50.509269],[30.476483,50.509195],[30.476726,50.509111],[30.47696,50.509017],[30.477184,50.508913],[30.477397,50.5088],[30.477597,50.508679],[30.477785,50.508549],[30.47796,50.508412],[30.478119,50.508268],[30.478264,50.508117],[30.478393,50.507961],[30.478505,50.5078],[30.478601,50.507634],[30.47868,50.507465],[30.478741,50.507293],[30.478784,50.507119],[30.47881,50.506943],[30.478817,50.506767],[30.478806,50.50659],[30.478777,50.506415],[30.47873,50.506241],[30.478666,50.506069],[30.478584,50.505901],[30.478484,50.505736],[30.478369,50.505576],[30.478237,50.505421],[30.478089,50.505271],[30.477926,50.505129],[30.477749,50.504993],[30.477559,50.504865],[30.477356,50.504745],[30.477141,50.504634],[30.476915,50.504532],[30.476679,50.50444],[30.476434,50.504358],[30.476181,50.504286],[30.475922,50.504225],[30.475656,50.504175],[30.475386,50.504136],[30.475113,50.504108],[30.474838,50.504092],[30.474561,50.504087],[30.474547,50.504088],[30.474543,50.504035],[30.474515,50.50386],[30.474468,50.503686],[30.474403,50.503514],[30.474321,50.503346],[30.474222,50.503181],[30.474106,50.503021],[30.473974,50.502866],[30.473827,50.502716],[30.473664,50.502574],[30.473487,50.502438],[30.473297,50.50231],[30.473093,50.50219],[30.472878,50.502079],[30.472653,50.501977],[30.472417,50.501885],[30.472172,50.501803],[30.471919,50.501731],[30.471659,50.50167],[30.471394,50.50162],[30.471124,50.501581],[30.470851,50.501553],[30.470575,50.501537],[30.470299,50.501532],[30.470022,50.501539],[30.469747,50.501557],[30.469474,50.501587],[30.469205,50.501628],[30.468941,50.501681],[30.468683,50.501744],[30.468431,50.501818],[30.468188,50.501902],[30.467954,50.501996],[30.46773,50.5021],[30.467518,50.502213],[30.467317,50.502334],[30.467129,50.502464],[30.466955,50.502601],[30.466795,50.502745],[30.46665,50.502895],[30.466521,50.503051],[30.466409,50.503213],[30.466313,50.503378],[30.466277,50.503455],[30.466235,50.503439],[30.465991,50.503357],[30.465738,50.503285],[30.465478,50.503224],[30.465213,50.503174],[30.464943,50.503135],[30.46467,50.503107],[30.464394,50.503091],[30.464118,50.503086],[30.463841,50.503093],[30.463566,50.503111],[30.463293,50.503141],[30.463222,50.503152],[30.463229,50.503145],[30.463374,50.502995],[30.463503,50.502839],[30.463616,50.502678],[30.463711,50.502512],[30.46379,50.502343],[30.463837,50.502211],[30.463968,50.50215],[30.464181,50.502037],[30.464382,50.501916],[30.464569,50.501786],[30.464744,50.501649],[30.464903,50.501505],[30.465048,50.501355],[30.465177,50.501199],[30.465229,50.501124],[30.465291,50.501156],[30.465517,50.501258],[30.465753,50.501351],[30.465997,50.501433],[30.46625,50.501505],[30.46651,50.501566],[30.466775,50.501616],[30.467045,50.501655],[30.467318,50.501682],[30.467594,50.501699],[30.46787,50.501703],[30.468147,50.501696],[30.468422,50.501678],[30.468695,50.501648],[30.468964,50.501607],[30.469228,50.501555],[30.469486,50.501492],[30.469738,50.501418],[30.469981,50.501334],[30.470215,50.501239],[30.470439,50.501136],[30.470652,50.501023],[30.470852,50.500901],[30.47104,50.500772],[30.471214,50.500635],[30.471374,50.500491],[30.471519,50.50034],[30.471648,50.500184],[30.47176,50.500023],[30.471856,50.499857],[30.471935,50.499688],[30.471996,50.499516],[30.472039,50.499342],[30.472064,50.499166],[30.472072,50.498989],[30.472061,50.498813],[30.472032,50.498638],[30.471985,50.498464],[30.471921,50.498292],[30.471839,50.498124],[30.47174,50.497959],[30.471624,50.497798],[30.471492,50.497643],[30.471344,50.497494],[30.471182,50.497351],[30.471005,50.497216],[30.470814,50.497088],[30.470611,50.496968],[30.470396,50.496857],[30.47017,50.496755],[30.469935,50.496663],[30.46969,50.49658],[30.469437,50.496508],[30.469177,50.496447],[30.468912,50.496397],[30.468642,50.496358],[30.468369,50.496331],[30.468094,50.496314],[30.467817,50.49631],[30.467541,50.496317],[30.467265,50.496335],[30.466993,50.496365],[30.466724,50.496406],[30.466459,50.496458],[30.466201,50.496522],[30.46595,50.496595],[30.465707,50.49668],[30.465473,50.496774],[30.465249,50.496877],[30.465036,50.49699],[30.464835,50.497112],[30.464647,50.497241],[30.464473,50.497378],[30.464313,50.497522],[30.464169,50.497673],[30.46404,50.497829],[30.463988,50.497903],[30.463926,50.497871],[30.4637,50.497769],[30.463464,50.497677],[30.463219,50.497595],[30.462967,50.497523],[30.462707,50.497462],[30.462442,50.497412],[30.462172,50.497373],[30.461899,50.497345],[30.461711,50.497334],[30.461692,50.497307],[30.46156,50.497152],[30.461412,50.497003],[30.461249,50.49686],[30.461073,50.496724],[30.460882,50.496596],[30.460679,50.496476],[30.460464,50.496365],[30.460238,50.496263],[30.460002,50.496171],[30.459758,50.496089],[30.459505,50.496017],[30.459245,50.495956],[30.45898,50.495906],[30.45871,50.495867],[30.458437,50.495839],[30.458162,50.495823],[30.457885,50.495818],[30.457609,50.495825],[30.457333,50.495843],[30.457061,50.495873],[30.456905,50.495897],[30.456893,50.495893],[30.45664,50.495821],[30.45638,50.49576],[30.456115,50.49571],[30.455845,50.495671],[30.455572,50.495643],[30.455297,50.495627],[30.45502,50.495622],[30.454744,50.495629],[30.454468,50.495647],[30.454196,50.495677],[30.453927,50.495718],[30.453662,50.495771],[30.453404,50.495834],[30.453153,50.495908],[30.45291,50.495992],[30.452676,50.496086],[30.452452,50.49619],[30.452239,50.496302],[30.452038,50.496424],[30.45185,50.496553],[30.451676,50.49669],[30.451516,50.496834],[30.451372,50.496985],[30.451243,50.497141],[30.45113,50.497302],[30.451034,50.497468],[30.450955,50.497637],[30.450894,50.497809],[30.450851,50.497983],[30.450835,50.498089],[30.45074,50.498254],[30.450683,50.498376],[30.450678,50.498372],[30.450501,50.498236],[30.450311,50.498108]],[[30.46214,50.513506],[30.462198,50.513515],[30.461971,50.51356],[30.461712,50.513623],[30.461461,50.513697],[30.461229,50.513777],[30.461103,50.51378],[30.460898,50.513794],[30.460959,50.513662],[30.46102,50.51349],[30.461064,50.513315],[30.461077,50.513225],[30.461117,50.513241],[30.461362,50.513323],[30.461615,50.513395],[30.461874,50.513456],[30.46214,50.513506]]],[[[30.363101,50.524465],[30.362828,50.524438],[30.362552,50.524421],[30.362275,50.524416],[30.361999,50.524423],[30.361723,50.524441],[30.36145,50.524471],[30.361181,50.524511],[30.360917,50.524564],[30.360658,50.524626],[30.360406,50.5247],[30.360163,50.524784],[30.359929,50.524878],[30.359704,50.524981],[30.359491,50.525094],[30.35929,50.525215],[30.359102,50.525345],[30.358927,50.525482],[30.358767,50.525626],[30.358622,50.525776],[30.358493,50.525932],[30.35838,50.526093],[30.358283,50.526259],[30.358204,50.526428],[30.358143,50.5266],[30.358099,50.526774],[30.358073,50.52695],[30.358065,50.527126],[30.358076,50.527302],[30.358104,50.527478],[30.358151,50.527652],[30.358215,50.527824],[30.358218,50.527831],[30.358005,50.52781],[30.357729,50.527793],[30.357453,50.527788],[30.357176,50.527795],[30.356901,50.527813],[30.356628,50.527843],[30.356358,50.527883],[30.356094,50.527935],[30.355835,50.527998],[30.355584,50.528072],[30.35534,50.528156],[30.355106,50.52825],[30.354881,50.528353],[30.354668,50.528466],[30.354467,50.528587],[30.354279,50.528717],[30.354104,50.528854],[30.353944,50.528997],[30.353799,50.529148],[30.353669,50.529304],[30.353556,50.529465],[30.35346,50.52963],[30.353381,50.529799],[30.353319,50.529972],[30.353276,50.530146],[30.35325,50.530322],[30.353242,50.530498],[30.353252,50.530674],[30.353281,50.53085],[30.353327,50.531024],[30.353391,50.531195],[30.353473,50.531364],[30.353572,50.531529],[30.353687,50.531689],[30.353819,50.531845],[30.353966,50.531994],[30.354129,50.532137],[30.354305,50.532273],[30.354496,50.532401],[30.354699,50.532521],[30.354776,50.532561],[30.354786,50.532567],[30.355001,50.532678],[30.355226,50.53278],[30.355462,50.532873],[30.355685,50.532948],[30.355523,50.532972],[30.355259,50.533024],[30.355,50.533087],[30.354748,50.533161],[30.354505,50.533245],[30.35427,50.533339],[30.354046,50.533442],[30.353833,50.533555],[30.353632,50.533676],[30.353443,50.533806],[30.353269,50.533943],[30.353109,50.534086],[30.352963,50.534237],[30.352834,50.534393],[30.352721,50.534554],[30.352625,50.534719],[30.352546,50.534888],[30.352484,50.535061],[30.35244,50.535235],[30.352414,50.53541],[30.352407,50.535587],[30.352417,50.535763],[30.352445,50.535939],[30.352492,50.536113],[30.352556,50.536284],[30.352638,50.536453],[30.352736,50.536618],[30.352852,50.536778],[30.352862,50.536791],[30.352803,50.536785],[30.352527,50.536768],[30.35225,50.536763],[30.351973,50.53677],[30.351698,50.536788],[30.351425,50.536818],[30.351155,50.536858],[30.350891,50.53691],[30.350632,50.536973],[30.35038,50.537047],[30.350137,50.537131],[30.349902,50.537225],[30.349678,50.537328],[30.349465,50.537441],[30.349264,50.537562],[30.349075,50.537692],[30.348901,50.537828],[30.34874,50.537972],[30.348595,50.538123],[30.348466,50.538279],[30.348353,50.53844],[30.348256,50.538605],[30.348177,50.538774],[30.348116,50.538946],[30.348072,50.539121],[30.348046,50.539296],[30.348038,50.539473],[30.348049,50.539649],[30.348077,50.539825],[30.348123,50.539999],[30.348188,50.54017],[30.348269,50.540339],[30.348336,50.54045],[30.348243,50.540468],[30.347985,50.540531],[30.347733,50.540604],[30.347489,50.540688],[30.347255,50.540782],[30.347031,50.540886],[30.347026,50.540888],[30.347014,50.540886],[30.346744,50.540847],[30.346471,50.540819],[30.346195,50.540802],[30.345918,50.540797],[30.345642,50.540804],[30.345366,50.540822],[30.345093,50.540851],[30.344824,50.540892],[30.344559,50.540944],[30.3443,50.541007],[30.344049,50.541081],[30.343805,50.541165],[30.34357,50.541259],[30.343346,50.541362],[30.343133,50.541475],[30.342932,50.541596],[30.342743,50.541725],[30.342569,50.541862],[30.342408,50.542006],[30.342263,50.542156],[30.342134,50.542312],[30.342021,50.542474],[30.341924,50.542639],[30.341845,50.542808],[30.341783,50.54298],[30.34174,50.543154],[30.341714,50.54333],[30.341706,50.543506],[30.341716,50.543683],[30.341745,50.543858],[30.341791,50.544032],[30.341855,50.544204],[30.341937,50.544373],[30.342035,50.544538],[30.342151,50.544698],[30.342283,50.544853],[30.34243,50.545003],[30.342592,50.545146],[30.342769,50.545282],[30.342959,50.54541],[30.343162,50.54553],[30.343377,50.545641],[30.343603,50.545743],[30.343609,50.545746],[30.343537,50.5459],[30.343475,50.546072],[30.343431,50.546247],[30.343406,50.546422],[30.343398,50.546599],[30.343408,50.546775],[30.343437,50.546951],[30.343483,50.547125],[30.343547,50.547296],[30.343629,50.547465],[30.343728,50.54763],[30.343843,50.54779],[30.343975,50.547946],[30.344122,50.548095],[30.344284,50.548238],[30.344461,50.548374],[30.344651,50.548502],[30.344854,50.548622],[30.345069,50.548733],[30.345295,50.548836],[30.345531,50.548928],[30.345776,50.549011],[30.346029,50.549083],[30.346288,50.549144],[30.346554,50.549194],[30.346824,50.549234],[30.347097,50.549262],[30.347373,50.549278],[30.34765,50.549283],[30.347927,50.549276],[30.348202,50.549258],[30.348475,50.549229],[30.348745,50.549188],[30.34901,50.549136],[30.349268,50.549073],[30.34952,50.548999],[30.349764,50.548915],[30.349998,50.548822],[30.350223,50.548718],[30.350436,50.548605],[30.350637,50.548484],[30.350826,50.548355],[30.351,50.548218],[30.351058,50.548166],[30.35119,50.548134],[30.351442,50.54806],[30.351686,50.547976],[30.35192,50.547882],[30.352144,50.547779],[30.352358,50.547666],[30.352559,50.547545],[30.352747,50.547416],[30.352922,50.547279],[30.353082,50.547135],[30.353227,50.546984],[30.353357,50.546828],[30.35347,50.546667],[30.353566,50.546502],[30.353623,50.546381],[30.353675,50.54636],[30.3539,50.546257],[30.354113,50.546144],[30.354314,50.546023],[30.354503,50.545893],[30.354677,50.545757],[30.354837,50.545613],[30.354983,50.545462],[30.355112,50.545306],[30.355225,50.545145],[30.355321,50.54498],[30.3554,50.544811],[30.355462,50.544638],[30.355506,50.544464],[30.355532,50.544289],[30.355539,50.544112],[30.355539,50.544107],[30.355641,50.544131],[30.355906,50.544181],[30.356176,50.544221],[30.35645,50.544248],[30.356726,50.544265],[30.357002,50.54427],[30.357279,50.544263],[30.357555,50.544245],[30.357828,50.544215],[30.358097,50.544175],[30.358362,50.544123],[30.35862,50.54406],[30.358872,50.543986],[30.359116,50.543902],[30.35935,50.543808],[30.359575,50.543705],[30.359788,50.543592],[30.359989,50.543471],[30.360177,50.543341],[30.360352,50.543204],[30.360512,50.54306],[30.360657,50.54291],[30.360787,50.542754],[30.3609,50.542593],[30.360996,50.542428],[30.361075,50.542258],[30.361137,50.542086],[30.36118,50.541912],[30.361206,50.541736],[30.361214,50.54156],[30.361204,50.541384],[30.361175,50.541208],[30.361129,50.541034],[30.361064,50.540862],[30.360983,50.540694],[30.360884,50.540529],[30.360768,50.540369],[30.360637,50.540213],[30.360489,50.540064],[30.360327,50.539921],[30.36015,50.539785],[30.35996,50.539657],[30.359757,50.539537],[30.359542,50.539426],[30.359316,50.539323],[30.35908,50.539231],[30.358835,50.539149],[30.358583,50.539076],[30.358323,50.539015],[30.358058,50.538965],[30.357788,50.538925],[30.357514,50.538898],[30.357238,50.538881],[30.356962,50.538876],[30.356685,50.538883],[30.356409,50.538901],[30.356409,50.538901],[30.356352,50.53875],[30.356271,50.538581],[30.356172,50.538416],[30.356056,50.538256],[30.356046,50.538243],[30.356106,50.538249],[30.356382,50.538266],[30.356658,50.538271],[30.356935,50.538264],[30.357211,50.538246],[30.357484,50.538216],[30.357753,50.538176],[30.358017,50.538124],[30.358276,50.538061],[30.358528,50.537987],[30.358771,50.537903],[30.359006,50.537809],[30.35923,50.537706],[30.359443,50.537593],[30.359645,50.537472],[30.359833,50.537342],[30.360008,50.537205],[30.360168,50.537061],[30.360313,50.536911],[30.360442,50.536755],[30.360555,50.536594],[30.360651,50.536429],[30.360731,50.536259],[30.360792,50.536087],[30.360836,50.535913],[30.360862,50.535737],[30.360869,50.535561],[30.360859,50.535385],[30.360831,50.535209],[30.360784,50.535035],[30.36072,50.534863],[30.360638,50.534695],[30.360539,50.53453],[30.360424,50.53437],[30.360292,50.534214],[30.360145,50.534065],[30.359983,50.533922],[30.359806,50.533786],[30.359616,50.533658],[30.359413,50.533538],[30.359198,50.533427],[30.358972,50.533324],[30.358736,50.533232],[30.358513,50.533157],[30.358675,50.533132],[30.35894,50.53308],[30.359198,50.533017],[30.35945,50.532944],[30.359693,50.53286],[30.359928,50.532766],[30.360152,50.532662],[30.360365,50.53255],[30.360566,50.532429],[30.360755,50.532299],[30.360929,50.532162],[30.36109,50.532018],[30.361235,50.531868],[30.361364,50.531712],[30.361477,50.531551],[30.361573,50.531385],[30.361652,50.531216],[30.361714,50.531044],[30.361758,50.53087],[30.361783,50.530694],[30.361791,50.530518],[30.361785,50.530417],[30.361838,50.530457],[30.362028,50.530585],[30.362231,50.530705],[30.362446,50.530817],[30.362672,50.530919],[30.362908,50.531011],[30.363152,50.531094],[30.363405,50.531166],[30.363665,50.531227],[30.36393,50.531277],[30.3642,50.531317],[30.364473,50.531344],[30.364749,50.531361],[30.364815,50.531362],[30.364834,50.531413],[30.364915,50.531581],[30.365014,50.531746],[30.36513,50.531907],[30.365261,50.532062],[30.365409,50.532211],[30.365571,50.532354],[30.365748,50.53249],[30.365938,50.532618],[30.366141,50.532738],[30.366356,50.53285],[30.366582,50.532952],[30.366818,50.533044],[30.367062,50.533127],[30.367315,50.533199],[30.367575,50.53326],[30.36784,50.53331],[30.36811,50.53335],[30.368384,50.533377],[30.368659,50.533394],[30.368936,50.533399],[30.369213,50.533392],[30.369488,50.533374],[30.369761,50.533344],[30.37003,50.533303],[30.370295,50.533251],[30.370554,50.533188],[30.370805,50.533115],[30.371049,50.533031],[30.371283,50.532937],[30.371507,50.532833],[30.371721,50.532721],[30.371922,50.532599],[30.37211,50.53247],[30.372285,50.532333],[30.372445,50.532189],[30.37259,50.532039],[30.372719,50.531883],[30.372832,50.531722],[30.372928,50.531556],[30.373007,50.531387],[30.373069,50.531215],[30.373113,50.531041],[30.373138,50.530865],[30.373146,50.530689],[30.373136,50.530512],[30.373107,50.530337],[30.373061,50.530163],[30.372996,50.529991],[30.372915,50.529822],[30.372816,50.529658],[30.3727,50.529497],[30.372569,50.529342],[30.372421,50.529193],[30.372259,50.52905],[30.372082,50.528914],[30.371892,50.528786],[30.371689,50.528666],[30.371474,50.528554],[30.371248,50.528452],[30.371219,50.528441],[30.371314,50.528277],[30.371393,50.528108],[30.371455,50.527936],[30.371498,50.527762],[30.371524,50.527586],[30.371532,50.52741],[30.371521,50.527233],[30.371493,50.527058],[30.371446,50.526884],[30.371382,50.526712],[30.3713,50.526543],[30.371202,50.526379],[30.371086,50.526218],[30.370954,50.526063],[30.370807,50.525914],[30.370645,50.525771],[30.370468,50.525635],[30.370278,50.525507],[30.370075,50.525387],[30.36986,50.525275],[30.369634,50.525173],[30.369398,50.525081],[30.369153,50.524998],[30.368901,50.524926],[30.368641,50.524865],[30.368376,50.524815],[30.368106,50.524775],[30.367832,50.524748],[30.367557,50.524731],[30.36728,50.524726],[30.367003,50.524733],[30.366728,50.524751],[30.366455,50.524781],[30.366186,50.524822],[30.365921,50.524874],[30.365663,50.524937],[30.365411,50.52501],[30.365168,50.525094],[30.365127,50.52511],[30.36507,50.525077],[30.364855,50.524965],[30.364629,50.524863],[30.364393,50.524771],[30.364149,50.524688],[30.363896,50.524616],[30.363636,50.524555],[30.363371,50.524505],[30.363101,50.524465]]],[[[30.368039,50.54847],[30.367892,50.548321],[30.367729,50.548178],[30.367553,50.548042],[30.367362,50.547914],[30.367159,50.547794],[30.366944,50.547682],[30.366718,50.54758],[30.366482,50.547488],[30.366237,50.547405],[30.365985,50.547333],[30.365725,50.547272],[30.365459,50.547222],[30.365189,50.547182],[30.364916,50.547155],[30.36464,50.547138],[30.364363,50.547133],[30.364086,50.54714],[30.363811,50.547158],[30.363538,50.547188],[30.363268,50.547228],[30.363004,50.547281],[30.362745,50.547344],[30.362493,50.547417],[30.36225,50.547501],[30.362015,50.547595],[30.361791,50.547699],[30.361578,50.547811],[30.361376,50.547932],[30.361188,50.548062],[30.361013,50.548199],[30.360853,50.548343],[30.360708,50.548493],[30.360579,50.548649],[30.360466,50.54881],[30.360369,50.548976],[30.36029,50.549145],[30.360229,50.549317],[30.360185,50.549491],[30.360159,50.549667],[30.360151,50.549843],[30.360162,50.55002],[30.36019,50.550195],[30.360237,50.550369],[30.360301,50.550541],[30.360383,50.550709],[30.360481,50.550874],[30.360597,50.551035],[30.360729,50.55119],[30.360876,50.551339],[30.361039,50.551482],[30.361215,50.551618],[30.361406,50.551746],[30.361609,50.551866],[30.361824,50.551978],[30.36205,50.55208],[30.362286,50.552172],[30.36253,50.552255],[30.362783,50.552327],[30.363043,50.552388],[30.363309,50.552438],[30.363579,50.552478],[30.363852,50.552505],[30.364128,50.552522],[30.364405,50.552527],[30.364682,50.55252],[30.364957,50.552502],[30.36523,50.552472],[30.3655,50.552431],[30.365764,50.552379],[30.366023,50.552316],[30.366275,50.552243],[30.366518,50.552159],[30.366753,50.552065],[30.366977,50.551961],[30.367191,50.551849],[30.367392,50.551728],[30.36758,50.551598],[30.367755,50.551461],[30.367915,50.551317],[30.36806,50.551167],[30.36819,50.551011],[30.368303,50.55085],[30.368399,50.550684],[30.368478,50.550515],[30.368539,50.550343],[30.368583,50.550169],[30.368609,50.549993],[30.368617,50.549817],[30.368606,50.54964],[30.368578,50.549465],[30.368531,50.549291],[30.368467,50.549119],[30.368385,50.548951],[30.368286,50.548786],[30.368171,50.548625],[30.368039,50.54847]]],[[[30.338323,50.550715],[30.338058,50.550767],[30.3378,50.55083],[30.337548,50.550904],[30.337304,50.550988],[30.33707,50.551082],[30.336845,50.551185],[30.336632,50.551298],[30.336431,50.551419],[30.336242,50.551548],[30.336067,50.551685],[30.335907,50.551829],[30.335762,50.551979],[30.335632,50.552135],[30.335519,50.552296],[30.335423,50.552462],[30.335344,50.552631],[30.335282,50.552803],[30.335238,50.552977],[30.335212,50.553153],[30.335204,50.553329],[30.335215,50.553506],[30.335243,50.553681],[30.335289,50.553855],[30.335354,50.554027],[30.335435,50.554196],[30.335534,50.55436],[30.335649,50.554521],[30.335781,50.554676],[30.335928,50.554826],[30.336091,50.554969],[30.336267,50.555104],[30.336458,50.555233],[30.336661,50.555353],[30.336876,50.555464],[30.337102,50.555566],[30.337338,50.555659],[30.337582,50.555741],[30.337715,50.555779],[30.337816,50.555839],[30.338031,50.55595],[30.338257,50.556052],[30.338493,50.556145],[30.338738,50.556227],[30.338991,50.556299],[30.339086,50.556322],[30.33916,50.556351],[30.339405,50.556433],[30.339658,50.556506],[30.339917,50.556567],[30.340183,50.556617],[30.340453,50.556657],[30.340727,50.556685],[30.341002,50.556701],[30.341279,50.556706],[30.341556,50.5567],[30.341832,50.556681],[30.342105,50.556652],[30.342374,50.556611],[30.342639,50.556559],[30.342898,50.556496],[30.34315,50.556422],[30.343393,50.556339],[30.343628,50.556245],[30.343852,50.556141],[30.344066,50.556029],[30.344267,50.555907],[30.344437,50.555791],[30.344394,50.555963],[30.344368,50.556138],[30.34436,50.556315],[30.34437,50.556491],[30.344399,50.556667],[30.344445,50.556841],[30.344509,50.557012],[30.344591,50.557181],[30.34469,50.557346],[30.344805,50.557506],[30.344937,50.557662],[30.345084,50.557811],[30.345247,50.557954],[30.345423,50.55809],[30.345614,50.558218],[30.345817,50.558338],[30.346032,50.558449],[30.346258,50.558552],[30.346494,50.558644],[30.346739,50.558727],[30.346992,50.558799],[30.347251,50.55886],[30.347517,50.55891],[30.347787,50.55895],[30.34806,50.558978],[30.348336,50.558994],[30.348613,50.558999],[30.34889,50.558992],[30.349166,50.558974],[30.349439,50.558945],[30.34965,50.558913],[30.349692,50.558923],[30.349957,50.558973],[30.350227,50.559012],[30.350501,50.55904],[30.350777,50.559057],[30.351053,50.559062],[30.35133,50.559055],[30.351606,50.559037],[30.351879,50.559007],[30.352149,50.558966],[30.352413,50.558914],[30.352672,50.558851],[30.352924,50.558778],[30.353168,50.558694],[30.353402,50.5586],[30.353627,50.558497],[30.35384,50.558384],[30.354041,50.558263],[30.35423,50.558133],[30.354404,50.557996],[30.354565,50.557852],[30.35471,50.557702],[30.354839,50.557546],[30.354952,50.557385],[30.355049,50.55722],[30.355088,50.557135],[30.355172,50.557048],[30.355301,50.556892],[30.355414,50.556731],[30.35551,50.556566],[30.35559,50.556397],[30.355651,50.556225],[30.355695,50.55605],[30.355721,50.555875],[30.355729,50.555698],[30.355718,50.555522],[30.35569,50.555346],[30.355643,50.555172],[30.355579,50.555001],[30.355497,50.554832],[30.355399,50.554667],[30.355283,50.554507],[30.355151,50.554352],[30.355004,50.554202],[30.354841,50.554059],[30.354665,50.553923],[30.354474,50.553795],[30.354271,50.553675],[30.354056,50.553564],[30.35383,50.553462],[30.353594,50.553369],[30.35335,50.553287],[30.353097,50.553215],[30.352837,50.553153],[30.352572,50.553103],[30.352301,50.553064],[30.352028,50.553036],[30.351752,50.553019],[30.351475,50.553014],[30.351198,50.553021],[30.350923,50.553039],[30.35065,50.553069],[30.35038,50.55311],[30.350116,50.553162],[30.349857,50.553224],[30.349605,50.553298],[30.349361,50.553382],[30.349127,50.553476],[30.348902,50.553579],[30.348844,50.55361],[30.348573,50.553605],[30.348297,50.553612],[30.348021,50.55363],[30.347748,50.55366],[30.347478,50.553701],[30.347214,50.553753],[30.346955,50.553816],[30.346703,50.553889],[30.346459,50.553973],[30.346225,50.554067],[30.346001,50.55417],[30.345787,50.554283],[30.345743,50.55431],[30.345761,50.554259],[30.345805,50.554085],[30.345831,50.553909],[30.345838,50.553733],[30.345828,50.553557],[30.345799,50.553381],[30.345753,50.553207],[30.345689,50.553035],[30.345607,50.552867],[30.345509,50.552702],[30.345393,50.552542],[30.345261,50.552386],[30.345114,50.552237],[30.344952,50.552094],[30.344775,50.551958],[30.344585,50.55183],[30.344381,50.55171],[30.344167,50.551598],[30.344059,50.55155],[30.344,50.55151],[30.343797,50.55139],[30.343582,50.551279],[30.343357,50.551177],[30.343121,50.551084],[30.342876,50.551002],[30.342623,50.55093],[30.342363,50.550868],[30.342098,50.550818],[30.341828,50.550779],[30.341554,50.550751],[30.341278,50.550734],[30.341002,50.550729],[30.340725,50.550736],[30.340673,50.550739],[30.340514,50.550709],[30.340244,50.55067],[30.339971,50.550642],[30.339695,50.550625],[30.339418,50.55062],[30.339141,50.550627],[30.338866,50.550645],[30.338593,50.550675],[30.338323,50.550715]]],[[[30.462459,50.486998],[30.462195,50.48705],[30.461937,50.487113],[30.461686,50.487187],[30.461443,50.487271],[30.461209,50.487366],[30.460985,50.487469],[30.460985,50.487469],[30.460985,50.487469],[30.460772,50.487582],[30.460571,50.487704],[30.460515,50.487742],[30.46046,50.487748],[30.460191,50.487789],[30.459926,50.487842],[30.459873,50.487855],[30.459686,50.487892],[30.459428,50.487955],[30.459177,50.488029],[30.458934,50.488113],[30.4587,50.488207],[30.458476,50.488311],[30.458263,50.488423],[30.458062,50.488545],[30.457875,50.488674],[30.4577,50.488812],[30.457541,50.488956],[30.457396,50.489106],[30.457267,50.489262],[30.457154,50.489423],[30.457059,50.489589],[30.45698,50.489758],[30.456919,50.48993],[30.456875,50.490105],[30.456875,50.490107],[30.45664,50.490176],[30.456397,50.49026],[30.456163,50.490355],[30.455939,50.490458],[30.455726,50.490571],[30.455525,50.490692],[30.455337,50.490822],[30.455163,50.490959],[30.455003,50.491103],[30.454859,50.491254],[30.45473,50.49141],[30.454617,50.491571],[30.454521,50.491736],[30.454443,50.491906],[30.454382,50.492078],[30.454338,50.492252],[30.454313,50.492428],[30.454305,50.492604],[30.454316,50.492781],[30.454345,50.492956],[30.454392,50.49313],[30.454456,50.493302],[30.454538,50.49347],[30.454637,50.493635],[30.454753,50.493795],[30.454885,50.49395],[30.455032,50.4941],[30.455195,50.494242],[30.455372,50.494378],[30.455562,50.494506],[30.455765,50.494626],[30.45598,50.494737],[30.456206,50.494839],[30.456442,50.494931],[30.456686,50.495014],[30.456939,50.495086],[30.457199,50.495147],[30.457464,50.495197],[30.457734,50.495236],[30.458007,50.495264],[30.458282,50.49528],[30.458559,50.495284],[30.458769,50.495279],[30.458944,50.495297],[30.45922,50.495313],[30.459496,50.495318],[30.459773,50.495311],[30.460048,50.495293],[30.46032,50.495263],[30.460589,50.495222],[30.460854,50.495169],[30.461112,50.495106],[30.461363,50.495032],[30.461606,50.494948],[30.461841,50.494854],[30.462064,50.49475],[30.462277,50.494638],[30.462478,50.494516],[30.462666,50.494387],[30.46284,50.494249],[30.463,50.494105],[30.463144,50.493955],[30.463273,50.493799],[30.463386,50.493638],[30.463406,50.493602],[30.463484,50.493532],[30.463628,50.493382],[30.463672,50.493328],[30.463944,50.493356],[30.46422,50.493372],[30.464496,50.493377],[30.464773,50.49337],[30.465048,50.493352],[30.465321,50.493322],[30.46559,50.493281],[30.465854,50.493228],[30.466112,50.493165],[30.466364,50.493091],[30.466607,50.493007],[30.466841,50.492913],[30.467065,50.492809],[30.467277,50.492696],[30.467478,50.492575],[30.467634,50.492467],[30.467638,50.492491],[30.467685,50.492665],[30.467749,50.492836],[30.467831,50.493005],[30.46793,50.49317],[30.468046,50.49333],[30.468178,50.493485],[30.468326,50.493634],[30.468488,50.493777],[30.468665,50.493913],[30.468856,50.494041],[30.469059,50.494161],[30.469274,50.494272],[30.4695,50.494374],[30.469735,50.494466],[30.46998,50.494548],[30.470233,50.49462],[30.470492,50.494681],[30.470758,50.494731],[30.471028,50.49477],[30.471301,50.494798],[30.471576,50.494814],[30.471853,50.494819],[30.472129,50.494812],[30.472404,50.494793],[30.472677,50.494764],[30.472946,50.494722],[30.47321,50.49467],[30.473469,50.494607],[30.47372,50.494533],[30.473963,50.494449],[30.474197,50.494355],[30.474421,50.494251],[30.474634,50.494138],[30.474834,50.494017],[30.475022,50.493887],[30.475196,50.49375],[30.475356,50.493606],[30.475501,50.493456],[30.47563,50.493299],[30.475742,50.493138],[30.475838,50.492973],[30.475916,50.492803],[30.475978,50.492631],[30.476021,50.492457],[30.476046,50.492281],[30.476054,50.492105],[30.476043,50.491928],[30.476014,50.491753],[30.475967,50.491579],[30.475902,50.491407],[30.47582,50.491239],[30.475721,50.491074],[30.475606,50.490914],[30.475474,50.490759],[30.475326,50.490609],[30.475163,50.490467],[30.474987,50.490331],[30.474796,50.490203],[30.474593,50.490083],[30.474378,50.489972],[30.474152,50.48987],[30.473916,50.489778],[30.473672,50.489696],[30.473419,50.489624],[30.473159,50.489563],[30.472894,50.489513],[30.472624,50.489474],[30.472351,50.489446],[30.472076,50.48943],[30.471799,50.489425],[30.471523,50.489432],[30.471329,50.489445],[30.471343,50.489427],[30.471353,50.489413],[30.471419,50.4894],[30.471677,50.489337],[30.471929,50.489263],[30.472172,50.489179],[30.472406,50.489085],[30.47263,50.488981],[30.472842,50.488868],[30.473043,50.488747],[30.473231,50.488617],[30.473405,50.48848],[30.473565,50.488336],[30.473709,50.488186],[30.473838,50.488029],[30.473951,50.487868],[30.474046,50.487703],[30.474125,50.487533],[30.474186,50.487361],[30.474229,50.487187],[30.474255,50.487011],[30.474262,50.486835],[30.474251,50.486659],[30.474222,50.486483],[30.474176,50.486309],[30.474154,50.486251],[30.474217,50.486381],[30.474316,50.486546],[30.474432,50.486706],[30.474564,50.486861],[30.474711,50.487011],[30.474874,50.487153],[30.475051,50.487289],[30.475241,50.487417],[30.475444,50.487537],[30.475659,50.487648],[30.475746,50.487687],[30.475729,50.487724],[30.475668,50.487896],[30.475624,50.48807],[30.475599,50.488246],[30.475592,50.488422],[30.475603,50.488599],[30.475632,50.488774],[30.475678,50.488948],[30.475743,50.48912],[30.475825,50.489288],[30.475924,50.489453],[30.47604,50.489613],[30.476172,50.489768],[30.476319,50.489918],[30.476482,50.49006],[30.476659,50.490196],[30.476849,50.490324],[30.477052,50.490444],[30.477267,50.490555],[30.477493,50.490657],[30.477729,50.490749],[30.477974,50.490831],[30.478226,50.490903],[30.478486,50.490964],[30.478751,50.491014],[30.4788,50.491021],[30.478884,50.491041],[30.479149,50.491091],[30.479419,50.49113],[30.479692,50.491158],[30.479968,50.491174],[30.480244,50.491179],[30.480521,50.491172],[30.480796,50.491153],[30.481069,50.491124],[30.481338,50.491082],[30.481602,50.49103],[30.48186,50.490967],[30.481913,50.490951],[30.48192,50.490954],[30.482165,50.491036],[30.482418,50.491108],[30.482677,50.491169],[30.482943,50.491219],[30.483212,50.491258],[30.483486,50.491286],[30.483761,50.491302],[30.484038,50.491306],[30.484314,50.491299],[30.484589,50.491281],[30.484862,50.491251],[30.485131,50.49121],[30.485395,50.491158],[30.485653,50.491094],[30.485905,50.49102],[30.486148,50.490936],[30.486382,50.490842],[30.486483,50.490795],[30.486543,50.490856],[30.486705,50.490999],[30.486882,50.491134],[30.487073,50.491262],[30.487276,50.491382],[30.487491,50.491493],[30.487717,50.491595],[30.487952,50.491687],[30.488197,50.49177],[30.48845,50.491841],[30.48871,50.491902],[30.488975,50.491953],[30.489245,50.491991],[30.489518,50.492019],[30.489793,50.492035],[30.49007,50.49204],[30.490346,50.492033],[30.490621,50.492014],[30.490894,50.491985],[30.491163,50.491943],[30.491427,50.491891],[30.491686,50.491828],[30.491937,50.491754],[30.49218,50.49167],[30.492414,50.491575],[30.492638,50.491472],[30.49285,50.491359],[30.493051,50.491237],[30.493239,50.491108],[30.493316,50.491047],[30.493407,50.491139],[30.493569,50.491282],[30.493746,50.491418],[30.493937,50.491546],[30.49414,50.491665],[30.494355,50.491776],[30.494581,50.491878],[30.494817,50.49197],[30.495062,50.492053],[30.495314,50.492124],[30.495574,50.492185],[30.495839,50.492236],[30.496109,50.492274],[30.496382,50.492302],[30.496658,50.492318],[30.496934,50.492323],[30.497211,50.492316],[30.497486,50.492297],[30.497758,50.492267],[30.498027,50.492226],[30.498292,50.492174],[30.49855,50.492111],[30.498801,50.492037],[30.499044,50.491952],[30.499278,50.491858],[30.499502,50.491754],[30.499715,50.491642],[30.499915,50.49152],[30.500103,50.491391],[30.500148,50.491355],[30.500239,50.491403],[30.500465,50.491504],[30.500701,50.491597],[30.500946,50.491679],[30.501199,50.49175],[30.501458,50.491812],[30.50161,50.49184],[30.501596,50.491865],[30.501517,50.492035],[30.501456,50.492207],[30.501413,50.492381],[30.501412,50.49239],[30.501339,50.492428],[30.501138,50.49255],[30.500951,50.49268],[30.500777,50.492817],[30.500617,50.492961],[30.500472,50.493111],[30.500344,50.493268],[30.500231,50.493429],[30.500136,50.493594],[30.500057,50.493764],[30.499996,50.493936],[30.499973,50.494029],[30.499775,50.494109],[30.499552,50.494213],[30.499339,50.494325],[30.499138,50.494447],[30.498951,50.494577],[30.498777,50.494714],[30.498617,50.494858],[30.498472,50.495008],[30.498344,50.495165],[30.498231,50.495326],[30.498135,50.495491],[30.498057,50.495661],[30.497999,50.495825],[30.497794,50.495865],[30.497536,50.495928],[30.497285,50.496002],[30.497041,50.496087],[30.496834,50.49617],[30.496782,50.496174],[30.496509,50.496204],[30.49624,50.496245],[30.495976,50.496297],[30.495717,50.49636],[30.495466,50.496434],[30.495223,50.496518],[30.494989,50.496613],[30.494765,50.496716],[30.494552,50.496829],[30.494352,50.496951],[30.494164,50.49708],[30.49399,50.497218],[30.49383,50.497362],[30.493686,50.497512],[30.493557,50.497668],[30.493444,50.49783],[30.493349,50.497995],[30.49327,50.498164],[30.493209,50.498336],[30.493166,50.498511],[30.493141,50.498687],[30.493133,50.498863],[30.493144,50.499039],[30.493173,50.499215],[30.493192,50.499283],[30.493057,50.499405],[30.492912,50.499555],[30.492784,50.499711],[30.492671,50.499872],[30.492575,50.500038],[30.492497,50.500207],[30.492436,50.500379],[30.492392,50.500554],[30.492377,50.500661],[30.492258,50.500669],[30.491986,50.500699],[30.491717,50.50074],[30.491452,50.500793],[30.491194,50.500856],[30.490943,50.50093],[30.4907,50.501014],[30.490466,50.501108],[30.490242,50.501212],[30.490029,50.501325],[30.489828,50.501446],[30.489641,50.501576],[30.489466,50.501713],[30.489307,50.501857],[30.489162,50.502008],[30.489033,50.502164],[30.488921,50.502325],[30.488889,50.50238],[30.488642,50.502334],[30.488372,50.502295],[30.488098,50.502267],[30.487823,50.502251],[30.487546,50.502246],[30.48727,50.502253],[30.486995,50.502272],[30.486722,50.502301],[30.486453,50.502343],[30.486189,50.502395],[30.48593,50.502458],[30.485679,50.502532],[30.485436,50.502616],[30.485202,50.502711],[30.484978,50.502814],[30.484946,50.502831],[30.484783,50.502879],[30.48454,50.502963],[30.484306,50.503057],[30.484082,50.503161],[30.483869,50.503274],[30.483739,50.503353],[30.483556,50.503438],[30.483343,50.50355],[30.483143,50.503672],[30.482955,50.503801],[30.482781,50.503939],[30.482621,50.504083],[30.482476,50.504233],[30.482348,50.504389],[30.482235,50.504551],[30.482139,50.504716],[30.482061,50.504885],[30.482,50.505057],[30.481956,50.505232],[30.481931,50.505407],[30.481924,50.505584],[30.481934,50.50576],[30.481963,50.505936],[30.48201,50.50611],[30.482075,50.506281],[30.482157,50.50645],[30.482256,50.506615],[30.482372,50.506775],[30.482504,50.50693],[30.482652,50.507079],[30.482814,50.507222],[30.482991,50.507358],[30.483182,50.507486],[30.483385,50.507605],[30.4836,50.507717],[30.483826,50.507818],[30.48406,50.50791],[30.484054,50.507917],[30.483942,50.508078],[30.483846,50.508244],[30.483767,50.508413],[30.483708,50.508582],[30.483585,50.508624],[30.483351,50.508718],[30.483127,50.508822],[30.482914,50.508935],[30.482713,50.509057],[30.482525,50.509186],[30.482351,50.509323],[30.482191,50.509467],[30.482047,50.509618],[30.481918,50.509774],[30.481805,50.509935],[30.481709,50.510101],[30.481631,50.51027],[30.48157,50.510442],[30.481526,50.510616],[30.481501,50.510792],[30.481494,50.510969],[30.481505,50.511145],[30.481534,50.51132],[30.48158,50.511494],[30.481645,50.511666],[30.481727,50.511834],[30.481748,50.511869],[30.481759,50.511934],[30.481805,50.512108],[30.48187,50.51228],[30.481952,50.512449],[30.482051,50.512613],[30.482167,50.512774],[30.482299,50.512929],[30.482447,50.513078],[30.482609,50.513221],[30.482786,50.513356],[30.482977,50.513484],[30.483163,50.513594],[30.483104,50.513695],[30.483026,50.513864],[30.482964,50.514036],[30.482921,50.51421],[30.482896,50.514386],[30.482889,50.514563],[30.482899,50.514739],[30.482928,50.514914],[30.482975,50.515088],[30.48304,50.51526],[30.483122,50.515429],[30.483221,50.515593],[30.483337,50.515754],[30.483469,50.515909],[30.483506,50.515946],[30.483416,50.515972],[30.483173,50.516056],[30.482939,50.516151],[30.482715,50.516254],[30.482502,50.516367],[30.482301,50.516489],[30.482113,50.516618],[30.481939,50.516755],[30.481779,50.516899],[30.481635,50.51705],[30.481506,50.517206],[30.481393,50.517367],[30.481298,50.517533],[30.481219,50.517702],[30.481158,50.517874],[30.481114,50.518049],[30.481089,50.518224],[30.481082,50.518401],[30.481093,50.518577],[30.481122,50.518753],[30.481169,50.518926],[30.481203,50.519018],[30.481106,50.519136],[30.480993,50.519297],[30.480898,50.519463],[30.480819,50.519632],[30.480758,50.519804],[30.480715,50.519978],[30.480689,50.520154],[30.480682,50.520331],[30.480693,50.520507],[30.480722,50.520682],[30.480769,50.520856],[30.480833,50.521028],[30.480915,50.521196],[30.481014,50.521361],[30.48113,50.521521],[30.481262,50.521677],[30.48141,50.521826],[30.481573,50.521969],[30.48175,50.522104],[30.48194,50.522232],[30.482144,50.522352],[30.482292,50.522429],[30.482288,50.522444],[30.482263,50.52262],[30.482256,50.522797],[30.482267,50.522973],[30.482296,50.523148],[30.482342,50.523322],[30.482407,50.523494],[30.482489,50.523663],[30.482588,50.523827],[30.482704,50.523988],[30.482836,50.524143],[30.482984,50.524292],[30.483147,50.524435],[30.483324,50.52457],[30.483514,50.524698],[30.483718,50.524818],[30.483933,50.524929],[30.484159,50.525031],[30.484395,50.525123],[30.484619,50.525198],[30.484649,50.525278],[30.484731,50.525447],[30.48483,50.525611],[30.484946,50.525772],[30.485078,50.525927],[30.485226,50.526076],[30.485389,50.526219],[30.485566,50.526354],[30.485756,50.526482],[30.48596,50.526602],[30.486175,50.526713],[30.486401,50.526815],[30.486637,50.526907],[30.486882,50.52699],[30.487135,50.527061],[30.487394,50.527122],[30.487563,50.527154],[30.487672,50.52721],[30.487898,50.527312],[30.488134,50.527404],[30.488379,50.527487],[30.488632,50.527558],[30.488892,50.527619],[30.489157,50.527669],[30.489427,50.527708],[30.4897,50.527736],[30.489976,50.527752],[30.490253,50.527757],[30.49053,50.52775],[30.490805,50.527731],[30.491078,50.527701],[30.491347,50.52766],[30.491611,50.527608],[30.491692,50.527588],[30.491698,50.527589],[30.491963,50.52764],[30.492233,50.527678],[30.492507,50.527706],[30.492782,50.527722],[30.493059,50.527727],[30.493336,50.52772],[30.493611,50.527701],[30.493884,50.527671],[30.494153,50.52763],[30.49436,50.527589],[30.494425,50.527604],[30.49469,50.527655],[30.49496,50.527693],[30.495234,50.527721],[30.49551,50.527737],[30.495786,50.527742],[30.496063,50.527735],[30.496338,50.527716],[30.496376,50.527712],[30.496454,50.527821],[30.496586,50.527976],[30.496734,50.528125],[30.496897,50.528268],[30.497009,50.528354],[30.497116,50.52848],[30.497264,50.528629],[30.497427,50.528772],[30.497604,50.528908],[30.497795,50.529036],[30.497998,50.529156],[30.498213,50.529267],[30.498439,50.529368],[30.498675,50.529461],[30.49892,50.529543],[30.499173,50.529614],[30.499433,50.529676],[30.499699,50.529726],[30.499969,50.529765],[30.500242,50.529792],[30.500518,50.529808],[30.500795,50.529813],[30.501071,50.529806],[30.501347,50.529787],[30.501584,50.529761],[30.501808,50.529849],[30.502053,50.529931],[30.502306,50.530003],[30.502566,50.530064],[30.502831,50.530114],[30.503102,50.530153],[30.503375,50.53018],[30.503651,50.530197],[30.503927,50.530201],[30.504204,50.530194],[30.504479,50.530176],[30.504752,50.530146],[30.505022,50.530105],[30.505286,50.530052],[30.505544,50.529989],[30.505782,50.529919],[30.505939,50.529928],[30.506216,50.529933],[30.50642,50.529928],[30.506553,50.529953],[30.506823,50.529992],[30.507096,50.530019],[30.507372,50.530035],[30.507649,50.53004],[30.507926,50.530033],[30.508201,50.530014],[30.508474,50.529984],[30.508743,50.529943],[30.509007,50.529891],[30.509266,50.529827],[30.509275,50.529825],[30.509487,50.529837],[30.509764,50.529842],[30.510041,50.529835],[30.510316,50.529816],[30.510589,50.529786],[30.510858,50.529745],[30.511122,50.529693],[30.511381,50.529629],[30.511632,50.529555],[30.511876,50.529471],[30.51211,50.529377],[30.512334,50.529273],[30.512546,50.52916],[30.512747,50.529039],[30.512935,50.528909],[30.513063,50.528808],[30.513142,50.528939],[30.513258,50.529099],[30.513391,50.529254],[30.513538,50.529403],[30.513701,50.529546],[30.513878,50.529682],[30.514069,50.52981],[30.514272,50.529929],[30.514488,50.53004],[30.514714,50.530142],[30.51495,50.530234],[30.515195,50.530317],[30.515448,50.530388],[30.515708,50.530449],[30.515973,50.530499],[30.516243,50.530538],[30.516517,50.530566],[30.516792,50.530582],[30.517069,50.530586],[30.517346,50.530579],[30.517621,50.530561],[30.517894,50.530531],[30.518163,50.53049],[30.518428,50.530437],[30.518686,50.530374],[30.518938,50.5303],[30.519181,50.530216],[30.519415,50.530121],[30.519639,50.530018],[30.519852,50.529905],[30.520052,50.529783],[30.52024,50.529654],[30.520414,50.529516],[30.520574,50.529372],[30.520718,50.529222],[30.520847,50.529065],[30.52096,50.528904],[30.521055,50.528739],[30.521134,50.528569],[30.521195,50.528397],[30.521213,50.528325],[30.521307,50.52826],[30.521481,50.528123],[30.521641,50.527979],[30.521786,50.527828],[30.521914,50.527672],[30.522027,50.527511],[30.522123,50.527345],[30.522201,50.527176],[30.522262,50.527004],[30.522305,50.526829],[30.52233,50.526654],[30.522338,50.526477],[30.522327,50.526301],[30.522308,50.526191],[30.52252,50.526118],[30.522754,50.526024],[30.522978,50.52592],[30.523191,50.525807],[30.523391,50.525685],[30.523579,50.525556],[30.523753,50.525419],[30.523913,50.525274],[30.524057,50.525124],[30.524186,50.524968],[30.524299,50.524806],[30.524394,50.524641],[30.524473,50.524472],[30.524534,50.524299],[30.524577,50.524125],[30.524602,50.523949],[30.524609,50.523773],[30.524598,50.523597],[30.524569,50.523421],[30.524522,50.523247],[30.524457,50.523076],[30.524375,50.522907],[30.524341,50.522851],[30.52437,50.52279],[30.524431,50.522618],[30.524474,50.522444],[30.524499,50.522268],[30.524506,50.522092],[30.524495,50.521915],[30.524466,50.52174],[30.524419,50.521566],[30.524354,50.521394],[30.524272,50.521226],[30.524173,50.521061],[30.524057,50.520901],[30.523925,50.520746],[30.523777,50.520596],[30.523614,50.520454],[30.523437,50.520318],[30.523246,50.52019],[30.523043,50.52007],[30.522881,50.519987],[30.522887,50.519842],[30.522876,50.519665],[30.522847,50.51949],[30.5228,50.519316],[30.522735,50.519144],[30.522653,50.518976],[30.522554,50.518811],[30.522438,50.518651],[30.522305,50.518496],[30.522158,50.518347],[30.521995,50.518204],[30.521818,50.518068],[30.521627,50.51794],[30.521424,50.517821],[30.521208,50.51771],[30.520982,50.517608],[30.520746,50.517516],[30.520577,50.517459],[30.520575,50.517431],[30.520546,50.517255],[30.520499,50.517081],[30.520434,50.51691],[30.520352,50.516741],[30.520252,50.516577],[30.520136,50.516416],[30.520004,50.516261],[30.519856,50.516112],[30.519694,50.515969],[30.519517,50.515834],[30.519326,50.515706],[30.519265,50.51567],[30.519319,50.515554],[30.51938,50.515382],[30.519423,50.515207],[30.519448,50.515032],[30.519456,50.514855],[30.519445,50.514679],[30.519415,50.514503],[30.519368,50.514329],[30.519304,50.514158],[30.519222,50.513989],[30.519122,50.513825],[30.519006,50.513664],[30.518874,50.513509],[30.518726,50.51336],[30.518564,50.513217],[30.518386,50.513082],[30.518196,50.512954],[30.517993,50.512834],[30.517777,50.512723],[30.517551,50.512621],[30.517315,50.512529],[30.51707,50.512447],[30.516817,50.512375],[30.516558,50.512314],[30.516292,50.512264],[30.516022,50.512225],[30.515749,50.512198],[30.515473,50.512182],[30.515203,50.512177],[30.51529,50.512131],[30.51549,50.51201],[30.515678,50.51188],[30.515852,50.511743],[30.516012,50.511599],[30.516156,50.511448],[30.516285,50.511292],[30.516397,50.511131],[30.516493,50.510965],[30.516572,50.510796],[30.516633,50.510624],[30.516676,50.510449],[30.516701,50.510274],[30.516708,50.510097],[30.516697,50.509921],[30.516668,50.509745],[30.516621,50.509572],[30.516556,50.5094],[30.516474,50.509231],[30.516375,50.509067],[30.516333,50.509008],[30.516333,50.509007],[30.51634,50.50883],[30.516335,50.508751],[30.516368,50.508679],[30.516429,50.508507],[30.516473,50.508332],[30.516498,50.508157],[30.516501,50.508085],[30.516511,50.508077],[30.51667,50.507933],[30.516815,50.507782],[30.516944,50.507626],[30.517056,50.507465],[30.517152,50.507299],[30.51719,50.507216],[30.517201,50.507205],[30.51733,50.507049],[30.517442,50.506888],[30.517538,50.506722],[30.517616,50.506553],[30.517677,50.506381],[30.51772,50.506206],[30.517746,50.506031],[30.517753,50.505854],[30.517742,50.505678],[30.517713,50.505502],[30.517666,50.505329],[30.517601,50.505157],[30.517519,50.504988],[30.51742,50.504824],[30.517304,50.504663],[30.517171,50.504508],[30.517024,50.504359],[30.516864,50.504219],[30.51707,50.504136],[30.517294,50.504032],[30.517507,50.503919],[30.517707,50.503798],[30.517895,50.503668],[30.518069,50.503531],[30.518083,50.503518],[30.518184,50.503478],[30.518407,50.503374],[30.518583,50.503281],[30.518648,50.503265],[30.518899,50.503191],[30.519142,50.503107],[30.519329,50.503031],[30.519349,50.503046],[30.51954,50.503174],[30.519743,50.503294],[30.519958,50.503405],[30.520184,50.503507],[30.52042,50.503599],[30.520665,50.503681],[30.520918,50.503753],[30.521178,50.503814],[30.521443,50.503864],[30.521713,50.503903],[30.521986,50.50393],[30.522262,50.503946],[30.522538,50.503951],[30.522815,50.503944],[30.52309,50.503925],[30.523363,50.503895],[30.523632,50.503854],[30.523896,50.503802],[30.524154,50.503738],[30.524405,50.503664],[30.524649,50.50358],[30.524882,50.503486],[30.525106,50.503382],[30.525138,50.503365],[30.525149,50.50336],[30.525361,50.503247],[30.525562,50.503126],[30.52575,50.502996],[30.525924,50.502859],[30.526083,50.502715],[30.526228,50.502564],[30.526357,50.502408],[30.526469,50.502247],[30.526565,50.502081],[30.526643,50.501912],[30.526704,50.50174],[30.526747,50.501565],[30.526772,50.50139],[30.526779,50.501213],[30.526768,50.501037],[30.526739,50.500861],[30.526692,50.500687],[30.526628,50.500516],[30.526545,50.500347],[30.526446,50.500183],[30.52633,50.500022],[30.526198,50.499867],[30.52605,50.499718],[30.525887,50.499575],[30.52571,50.49944],[30.52552,50.499312],[30.525316,50.499192],[30.525101,50.499081],[30.524875,50.498979],[30.524639,50.498887],[30.524629,50.498884],[30.52464,50.498808],[30.524647,50.498632],[30.524636,50.498456],[30.524625,50.498386],[30.524791,50.498285],[30.524978,50.498156],[30.525152,50.498019],[30.525312,50.497874],[30.525322,50.497864],[30.52549,50.497797],[30.525713,50.497693],[30.525926,50.49758],[30.526127,50.497458],[30.526314,50.497329],[30.526488,50.497192],[30.526648,50.497047],[30.526792,50.496897],[30.526921,50.496741],[30.527033,50.496579],[30.527129,50.496414],[30.527207,50.496245],[30.527268,50.496072],[30.527273,50.496055],[30.527456,50.495958],[30.527657,50.495836],[30.527844,50.495707],[30.528018,50.49557],[30.528178,50.495425],[30.528322,50.495275],[30.528451,50.495119],[30.528563,50.494957],[30.528659,50.494792],[30.528737,50.494623],[30.528798,50.49445],[30.528841,50.494276],[30.528867,50.4941],[30.52887,50.494026],[30.528934,50.493975],[30.529045,50.493942],[30.529288,50.493858],[30.529522,50.493764],[30.529745,50.49366],[30.529958,50.493547],[30.530159,50.493425],[30.530346,50.493296],[30.53052,50.493158],[30.53068,50.493014],[30.530824,50.492864],[30.530953,50.492708],[30.531065,50.492546],[30.531161,50.492381],[30.531168,50.492365],[30.53118,50.492361],[30.531423,50.492277],[30.531657,50.492183],[30.53188,50.492079],[30.532093,50.491966],[30.532294,50.491844],[30.532481,50.491715],[30.532655,50.491577],[30.532815,50.491433],[30.532959,50.491283],[30.533088,50.491126],[30.5332,50.490965],[30.533296,50.4908],[30.533374,50.49063],[30.533435,50.490458],[30.533478,50.490284],[30.533503,50.490108],[30.53351,50.489932],[30.533499,50.489755],[30.53347,50.48958],[30.533423,50.489406],[30.533358,50.489234],[30.533276,50.489066],[30.533177,50.488901],[30.533061,50.488741],[30.532929,50.488586],[30.53279,50.488446],[30.532809,50.488449],[30.533082,50.488476],[30.533358,50.488492],[30.533634,50.488497],[30.533911,50.48849],[30.534186,50.488471],[30.534458,50.488441],[30.534727,50.4884],[30.534992,50.488347],[30.53525,50.488284],[30.535501,50.48821],[30.535744,50.488126],[30.535978,50.488032],[30.536201,50.487928],[30.536414,50.487815],[30.536614,50.487693],[30.536802,50.487563],[30.536976,50.487426],[30.537136,50.487282],[30.53728,50.487132],[30.537409,50.486975],[30.537521,50.486814],[30.537616,50.486648],[30.537695,50.486479],[30.537756,50.486307],[30.537799,50.486133],[30.537824,50.485957],[30.537831,50.485781],[30.53782,50.485604],[30.537791,50.485429],[30.537744,50.485255],[30.537679,50.485083],[30.537597,50.484915],[30.537497,50.48475],[30.537381,50.48459],[30.537249,50.484435],[30.537102,50.484286],[30.536939,50.484143],[30.536762,50.484007],[30.536571,50.483879],[30.536368,50.48376],[30.536153,50.483649],[30.535927,50.483547],[30.535691,50.483455],[30.535446,50.483373],[30.535193,50.483301],[30.534934,50.48324],[30.534669,50.48319],[30.534399,50.483151],[30.534126,50.483124],[30.53385,50.483108],[30.533574,50.483103],[30.533297,50.48311],[30.533022,50.483129],[30.53275,50.483159],[30.532481,50.4832],[30.532217,50.483253],[30.531958,50.483316],[30.531707,50.48339],[30.531464,50.483474],[30.531231,50.483568],[30.531007,50.483672],[30.530794,50.483785],[30.530594,50.483907],[30.530406,50.484036],[30.530232,50.484174],[30.530073,50.484318],[30.529928,50.484468],[30.5298,50.484625],[30.529687,50.484786],[30.529592,50.484951],[30.529513,50.485121],[30.529452,50.485293],[30.529409,50.485467],[30.529384,50.485643],[30.529377,50.485819],[30.529388,50.485996],[30.529417,50.486171],[30.529464,50.486345],[30.529529,50.486517],[30.529611,50.486685],[30.52971,50.48685],[30.529826,50.48701],[30.529958,50.487165],[30.530097,50.487305],[30.530078,50.487302],[30.529805,50.487275],[30.529529,50.487259],[30.529253,50.487254],[30.528976,50.487261],[30.528701,50.48728],[30.528429,50.48731],[30.52816,50.487351],[30.527896,50.487404],[30.527638,50.487467],[30.527386,50.487541],[30.527143,50.487625],[30.52691,50.487719],[30.526686,50.487823],[30.526473,50.487936],[30.526273,50.488058],[30.526098,50.488178],[30.526094,50.488178],[30.525819,50.488197],[30.525546,50.488227],[30.525277,50.488268],[30.525013,50.48832],[30.524755,50.488384],[30.524504,50.488458],[30.52426,50.488542],[30.524027,50.488636],[30.523803,50.48874],[30.52359,50.488853],[30.52339,50.488975],[30.523202,50.489104],[30.523028,50.489241],[30.522869,50.489386],[30.522724,50.489536],[30.522643,50.489635],[30.522489,50.489673],[30.522238,50.489747],[30.521995,50.489831],[30.521761,50.489925],[30.521537,50.490029],[30.521324,50.490142],[30.521229,50.4902],[30.521054,50.49015],[30.520794,50.490089],[30.520529,50.490039],[30.520259,50.49],[30.519986,50.489973],[30.519713,50.489957],[30.519484,50.489913],[30.519215,50.489875],[30.518941,50.489847],[30.518666,50.489831],[30.518389,50.489826],[30.518113,50.489833],[30.517838,50.489852],[30.517565,50.489882],[30.517296,50.489923],[30.517032,50.489976],[30.516774,50.490039],[30.516523,50.490113],[30.51628,50.490197],[30.516046,50.490291],[30.515822,50.490395],[30.515609,50.490508],[30.515409,50.49063],[30.515221,50.490759],[30.515047,50.490896],[30.514887,50.491041],[30.514743,50.491191],[30.51464,50.491316],[30.514454,50.491289],[30.514181,50.491262],[30.514141,50.49126],[30.514104,50.491161],[30.514022,50.490993],[30.513922,50.490828],[30.513807,50.490668],[30.513674,50.490513],[30.513527,50.490363],[30.513364,50.490221],[30.513187,50.490085],[30.512997,50.489957],[30.512793,50.489837],[30.512578,50.489726],[30.512352,50.489624],[30.512116,50.489532],[30.511872,50.48945],[30.511619,50.489378],[30.511359,50.489317],[30.511094,50.489267],[30.510824,50.489228],[30.510551,50.489201],[30.510276,50.489185],[30.509999,50.48918],[30.509723,50.489187],[30.509447,50.489206],[30.509175,50.489236],[30.508906,50.489277],[30.508642,50.489329],[30.508383,50.489393],[30.508132,50.489466],[30.507889,50.489551],[30.507655,50.489645],[30.507432,50.489749],[30.507219,50.489862],[30.507018,50.489983],[30.506831,50.490113],[30.506808,50.490131],[30.506788,50.490127],[30.506802,50.490101],[30.506881,50.489932],[30.506942,50.48976],[30.506985,50.489586],[30.50701,50.48941],[30.507017,50.489234],[30.507006,50.489057],[30.506977,50.488882],[30.50693,50.488708],[30.506866,50.488536],[30.506784,50.488368],[30.506684,50.488203],[30.506569,50.488043],[30.506436,50.487888],[30.506289,50.487739],[30.506126,50.487596],[30.505949,50.48746],[30.505759,50.487332],[30.505556,50.487212],[30.505341,50.487101],[30.505115,50.487],[30.504879,50.486907],[30.504634,50.486825],[30.504381,50.486753],[30.504122,50.486692],[30.503856,50.486642],[30.503587,50.486603],[30.503313,50.486576],[30.503038,50.48656],[30.502761,50.486555],[30.502485,50.486562],[30.502389,50.486569],[30.502385,50.486547],[30.502338,50.486373],[30.502319,50.486321],[30.502367,50.486238],[30.502445,50.486068],[30.502506,50.485896],[30.502549,50.485722],[30.502575,50.485546],[30.502582,50.48537],[30.502571,50.485193],[30.502542,50.485018],[30.502495,50.484844],[30.50243,50.484672],[30.502348,50.484504],[30.502249,50.484339],[30.502133,50.484179],[30.502001,50.484024],[30.501854,50.483875],[30.501691,50.483732],[30.501514,50.483596],[30.501324,50.483468],[30.501121,50.483348],[30.500906,50.483237],[30.50068,50.483136],[30.500444,50.483043],[30.500199,50.482961],[30.499946,50.48289],[30.499687,50.482828],[30.499422,50.482778],[30.499152,50.482739],[30.498879,50.482712],[30.498603,50.482696],[30.498327,50.482691],[30.49805,50.482698],[30.497775,50.482717],[30.497503,50.482747],[30.497234,50.482788],[30.49697,50.48284],[30.496711,50.482903],[30.49646,50.482977],[30.496217,50.483062],[30.495983,50.483156],[30.495759,50.483259],[30.495547,50.483372],[30.495346,50.483494],[30.495158,50.483623],[30.494984,50.483761],[30.494825,50.483905],[30.49468,50.484055],[30.494552,50.484211],[30.494439,50.484373],[30.494343,50.484538],[30.494265,50.484707],[30.494204,50.48488],[30.494161,50.485054],[30.494145,50.485161],[30.49406,50.485264],[30.493948,50.485425],[30.493852,50.485591],[30.493835,50.485627],[30.493707,50.485782],[30.493595,50.485944],[30.493499,50.486109],[30.493421,50.486278],[30.49336,50.486451],[30.493316,50.486625],[30.493291,50.486801],[30.493284,50.486977],[30.493295,50.487153],[30.493324,50.487329],[30.493371,50.487503],[30.493435,50.487674],[30.493488,50.487784],[30.493379,50.487687],[30.493202,50.487551],[30.493011,50.487423],[30.492808,50.487304],[30.492593,50.487193],[30.492367,50.487091],[30.492131,50.486999],[30.491887,50.486916],[30.491634,50.486845],[30.491374,50.486784],[30.491109,50.486733],[30.490839,50.486695],[30.490566,50.486667],[30.490291,50.486651],[30.490014,50.486646],[30.489738,50.486653],[30.489463,50.486672],[30.48919,50.486701],[30.488921,50.486743],[30.488657,50.486795],[30.488399,50.486858],[30.488147,50.486932],[30.487904,50.487016],[30.48767,50.487111],[30.487569,50.487157],[30.487509,50.487097],[30.487347,50.486954],[30.48717,50.486818],[30.48698,50.48669],[30.486776,50.48657],[30.486561,50.486459],[30.486419,50.486395],[30.48641,50.486253],[30.486381,50.486078],[30.486334,50.485904],[30.48627,50.485732],[30.486188,50.485563],[30.486089,50.485399],[30.485973,50.485238],[30.485841,50.485083],[30.485693,50.484934],[30.485531,50.484791],[30.485354,50.484656],[30.485163,50.484528],[30.48496,50.484408],[30.484745,50.484297],[30.484519,50.484195],[30.484284,50.484103],[30.484039,50.484021],[30.483786,50.483949],[30.483527,50.483888],[30.483261,50.483838],[30.482992,50.483799],[30.482718,50.483771],[30.482443,50.483755],[30.482167,50.48375],[30.48189,50.483757],[30.481615,50.483776],[30.48148,50.48379],[30.481371,50.483707],[30.481181,50.483579],[30.480977,50.483459],[30.480762,50.483348],[30.480537,50.483246],[30.480301,50.483154],[30.480056,50.483072],[30.479803,50.483],[30.479544,50.482939],[30.479279,50.482889],[30.479009,50.48285],[30.478736,50.482822],[30.47846,50.482806],[30.478184,50.482801],[30.477907,50.482808],[30.477632,50.482827],[30.47736,50.482856],[30.477091,50.482898],[30.476827,50.48295],[30.476568,50.483013],[30.476317,50.483087],[30.476074,50.483171],[30.47584,50.483265],[30.475616,50.483369],[30.475404,50.483482],[30.475203,50.483603],[30.475015,50.483733],[30.474841,50.48387],[30.474681,50.484014],[30.474537,50.484165],[30.474408,50.484321],[30.474296,50.484482],[30.4742,50.484648],[30.474121,50.484817],[30.47406,50.484989],[30.474017,50.485163],[30.473991,50.485339],[30.473984,50.485515],[30.473995,50.485692],[30.474024,50.485867],[30.474071,50.486041],[30.474093,50.486099],[30.474029,50.485969],[30.47393,50.485804],[30.473814,50.485644],[30.473682,50.485489],[30.473535,50.48534],[30.473372,50.485197],[30.473195,50.485061],[30.473005,50.484933],[30.472802,50.484813],[30.472587,50.484702],[30.472361,50.4846],[30.472125,50.484508],[30.471881,50.484426],[30.471628,50.484354],[30.471368,50.484293],[30.471103,50.484243],[30.470833,50.484204],[30.47056,50.484176],[30.470285,50.48416],[30.470008,50.484155],[30.469732,50.484162],[30.469457,50.484181],[30.469184,50.48421],[30.468915,50.484252],[30.468651,50.484304],[30.468415,50.484362],[30.468266,50.484334],[30.467996,50.484295],[30.467723,50.484267],[30.467447,50.484251],[30.467171,50.484246],[30.466895,50.484253],[30.466619,50.484271],[30.466347,50.484301],[30.466078,50.484342],[30.465814,50.484395],[30.465555,50.484458],[30.465304,50.484532],[30.465061,50.484616],[30.464827,50.48471],[30.464603,50.484814],[30.464391,50.484926],[30.46419,50.485048],[30.464002,50.485177],[30.463828,50.485315],[30.463668,50.485459],[30.463524,50.485609],[30.463395,50.485765],[30.463282,50.485926],[30.463186,50.486092],[30.463108,50.486261],[30.463047,50.486433],[30.463003,50.486608],[30.462978,50.486783],[30.462972,50.48693],[30.462728,50.486957],[30.462459,50.486998]]],[[[30.467778,50.565668],[30.467615,50.565525],[30.467438,50.565389],[30.467247,50.565261],[30.467044,50.565141],[30.466828,50.56503],[30.466602,50.564928],[30.466366,50.564836],[30.466121,50.564754],[30.465868,50.564682],[30.465608,50.564621],[30.465342,50.564571],[30.465072,50.564532],[30.464798,50.564504],[30.464522,50.564488],[30.464246,50.564483],[30.463969,50.56449],[30.463693,50.564508],[30.46342,50.564538],[30.463151,50.564579],[30.462886,50.564632],[30.462627,50.564695],[30.462376,50.564769],[30.462132,50.564853],[30.461898,50.564947],[30.461673,50.565051],[30.46146,50.565164],[30.461259,50.565285],[30.461071,50.565415],[30.460897,50.565552],[30.460737,50.565696],[30.460592,50.565846],[30.460463,50.566002],[30.46035,50.566164],[30.460331,50.566197],[30.460294,50.566204],[30.460035,50.566268],[30.459783,50.566341],[30.45954,50.566426],[30.459305,50.56652],[30.459081,50.566623],[30.458868,50.566736],[30.458667,50.566858],[30.458479,50.566987],[30.458304,50.567124],[30.458144,50.567268],[30.458,50.567419],[30.45787,50.567575],[30.457758,50.567736],[30.457662,50.567902],[30.457583,50.568071],[30.457522,50.568243],[30.457478,50.568417],[30.457453,50.568593],[30.457445,50.568769],[30.457456,50.568946],[30.457485,50.569121],[30.457532,50.569295],[30.457596,50.569467],[30.457678,50.569635],[30.457778,50.5698],[30.457894,50.56996],[30.458026,50.570116],[30.458174,50.570265],[30.458336,50.570408],[30.458513,50.570543],[30.458704,50.570671],[30.458908,50.570791],[30.459123,50.570902],[30.459349,50.571004],[30.459585,50.571097],[30.45983,50.571179],[30.460084,50.571251],[30.460344,50.571312],[30.460609,50.571362],[30.460879,50.571401],[30.461153,50.571429],[30.461429,50.571445],[30.461706,50.571449],[30.461983,50.571443],[30.462259,50.571424],[30.462532,50.571394],[30.462801,50.571353],[30.463066,50.571301],[30.463325,50.571238],[30.463576,50.571164],[30.46382,50.57108],[30.464054,50.570986],[30.464065,50.570981],[30.464124,50.570984],[30.464401,50.570989],[30.464677,50.570982],[30.464953,50.570963],[30.465226,50.570934],[30.465496,50.570893],[30.46576,50.57084],[30.466019,50.570777],[30.466271,50.570703],[30.466514,50.570619],[30.466749,50.570525],[30.466973,50.570421],[30.467186,50.570308],[30.467387,50.570187],[30.467575,50.570057],[30.46775,50.56992],[30.46791,50.569776],[30.468054,50.569626],[30.468183,50.56947],[30.468296,50.569308],[30.468392,50.569143],[30.468471,50.568974],[30.468532,50.568801],[30.468576,50.568627],[30.468601,50.568451],[30.468608,50.568275],[30.468598,50.568099],[30.468569,50.567923],[30.468522,50.567749],[30.468458,50.567579],[30.468473,50.567515],[30.468499,50.567339],[30.468506,50.567163],[30.468495,50.566987],[30.468467,50.566811],[30.46842,50.566637],[30.468355,50.566466],[30.468273,50.566297],[30.468174,50.566132],[30.468058,50.565972],[30.467926,50.565817],[30.467778,50.565668]]],[[[30.474383,50.533937],[30.474221,50.533795],[30.474043,50.533659],[30.473853,50.533531],[30.47365,50.533411],[30.473434,50.5333],[30.473208,50.533198],[30.472972,50.533106],[30.472727,50.533024],[30.472474,50.532952],[30.472215,50.532891],[30.471949,50.532841],[30.471679,50.532802],[30.471406,50.532774],[30.47113,50.532758],[30.470853,50.532753],[30.470576,50.53276],[30.470301,50.532779],[30.470028,50.532808],[30.469759,50.53285],[30.469495,50.532902],[30.469236,50.532965],[30.468985,50.533039],[30.468741,50.533123],[30.468507,50.533217],[30.468283,50.533321],[30.46807,50.533434],[30.467869,50.533555],[30.467681,50.533685],[30.467507,50.533822],[30.467347,50.533966],[30.467202,50.534116],[30.467097,50.534244],[30.466881,50.534259],[30.466608,50.534288],[30.466339,50.534329],[30.466075,50.534382],[30.465816,50.534445],[30.465565,50.534519],[30.465321,50.534603],[30.465087,50.534697],[30.464863,50.534801],[30.46465,50.534914],[30.464449,50.535035],[30.464261,50.535165],[30.464087,50.535302],[30.463927,50.535446],[30.463782,50.535596],[30.463653,50.535752],[30.46354,50.535914],[30.463445,50.536079],[30.463366,50.536248],[30.463305,50.53642],[30.463261,50.536595],[30.463236,50.53677],[30.463228,50.536947],[30.463239,50.537123],[30.463268,50.537299],[30.463315,50.537473],[30.46338,50.537644],[30.463462,50.537813],[30.463561,50.537978],[30.463677,50.538138],[30.463809,50.538293],[30.463956,50.538442],[30.464119,50.538585],[30.464296,50.538721],[30.464487,50.538849],[30.46469,50.538969],[30.464905,50.53908],[30.465131,50.539182],[30.465367,50.539274],[30.465612,50.539356],[30.465865,50.539428],[30.466125,50.539489],[30.46639,50.539539],[30.466661,50.539578],[30.466934,50.539606],[30.46721,50.539622],[30.467487,50.539627],[30.467763,50.53962],[30.468039,50.539601],[30.468312,50.539572],[30.468581,50.53953],[30.468845,50.539478],[30.469104,50.539415],[30.469356,50.539341],[30.469599,50.539257],[30.469833,50.539163],[30.470057,50.539059],[30.47027,50.538946],[30.470471,50.538825],[30.470659,50.538695],[30.470833,50.538558],[30.470993,50.538414],[30.471138,50.538264],[30.471244,50.538136],[30.471459,50.538121],[30.471732,50.538092],[30.472001,50.53805],[30.472266,50.537998],[30.472524,50.537935],[30.472776,50.537861],[30.473019,50.537777],[30.473253,50.537683],[30.473477,50.537579],[30.47369,50.537466],[30.473891,50.537345],[30.474079,50.537215],[30.474253,50.537078],[30.474413,50.536934],[30.474558,50.536784],[30.474687,50.536627],[30.4748,50.536466],[30.474896,50.536301],[30.474974,50.536131],[30.475035,50.535959],[30.475079,50.535785],[30.475104,50.535609],[30.475111,50.535433],[30.475101,50.535256],[30.475072,50.535081],[30.475025,50.534907],[30.47496,50.534735],[30.474878,50.534567],[30.474779,50.534402],[30.474663,50.534242],[30.474531,50.534087],[30.474383,50.533937]]],[[[30.490382,50.540428],[30.490116,50.540378],[30.489846,50.540339],[30.489573,50.540311],[30.489297,50.540295],[30.48902,50.54029],[30.488743,50.540297],[30.488468,50.540316],[30.488195,50.540346],[30.487926,50.540387],[30.487661,50.540439],[30.487403,50.540502],[30.487151,50.540576],[30.486908,50.54066],[30.486674,50.540755],[30.48645,50.540858],[30.486237,50.540971],[30.486194,50.540997],[30.486137,50.540989],[30.485864,50.540961],[30.485588,50.540945],[30.485311,50.54094],[30.485035,50.540947],[30.484759,50.540966],[30.484486,50.540995],[30.484217,50.541037],[30.483953,50.541089],[30.483694,50.541152],[30.483442,50.541226],[30.483199,50.54131],[30.482965,50.541404],[30.482741,50.541508],[30.482528,50.541621],[30.482327,50.541743],[30.482139,50.541872],[30.481965,50.542009],[30.481805,50.542153],[30.48166,50.542304],[30.481531,50.54246],[30.481419,50.542621],[30.481323,50.542787],[30.481244,50.542956],[30.481183,50.543128],[30.48114,50.543302],[30.481114,50.543478],[30.481107,50.543655],[30.481118,50.543831],[30.481147,50.544006],[30.481194,50.54418],[30.481258,50.544352],[30.48134,50.54452],[30.48144,50.544685],[30.481556,50.544846],[30.481688,50.545001],[30.481835,50.54515],[30.481998,50.545293],[30.482175,50.545428],[30.482366,50.545556],[30.482569,50.545676],[30.482785,50.545787],[30.483011,50.545889],[30.483247,50.545981],[30.483492,50.546063],[30.483745,50.546135],[30.484005,50.546196],[30.48427,50.546246],[30.48454,50.546285],[30.484814,50.546313],[30.48509,50.546329],[30.485367,50.546334],[30.485643,50.546327],[30.485919,50.546308],[30.486192,50.546279],[30.486461,50.546237],[30.486726,50.546185],[30.486984,50.546122],[30.487236,50.546048],[30.487479,50.545964],[30.487713,50.545869],[30.487937,50.545766],[30.48815,50.545653],[30.488158,50.545648],[30.488238,50.545695],[30.488453,50.545806],[30.488679,50.545908],[30.488915,50.546],[30.48916,50.546083],[30.489413,50.546154],[30.489673,50.546215],[30.489939,50.546265],[30.490209,50.546304],[30.490482,50.546332],[30.490758,50.546348],[30.491035,50.546353],[30.491312,50.546346],[30.491587,50.546327],[30.49186,50.546297],[30.492129,50.546256],[30.492394,50.546204],[30.492653,50.546141],[30.492904,50.546067],[30.493147,50.545983],[30.493382,50.545888],[30.493606,50.545785],[30.493819,50.545672],[30.494019,50.54555],[30.494207,50.545421],[30.494382,50.545283],[30.494542,50.545139],[30.494686,50.544989],[30.494815,50.544833],[30.494928,50.544671],[30.495024,50.544506],[30.495102,50.544337],[30.495163,50.544165],[30.495207,50.54399],[30.495232,50.543814],[30.495239,50.543638],[30.495228,50.543462],[30.495199,50.543286],[30.495152,50.543112],[30.495088,50.542941],[30.495005,50.542772],[30.494906,50.542607],[30.49479,50.542447],[30.494658,50.542292],[30.49451,50.542143],[30.494347,50.542],[30.49417,50.541864],[30.49398,50.541736],[30.493776,50.541617],[30.493561,50.541506],[30.493335,50.541404],[30.493099,50.541312],[30.492854,50.541229],[30.492601,50.541158],[30.492341,50.541097],[30.492075,50.541046],[30.491956,50.541029],[30.491817,50.540948],[30.491602,50.540837],[30.491376,50.540735],[30.49114,50.540643],[30.490895,50.54056],[30.490642,50.540489],[30.490382,50.540428]]],[[[30.470829,50.549618],[30.470666,50.549475],[30.470489,50.549339],[30.470298,50.549211],[30.470095,50.549091],[30.469879,50.54898],[30.469653,50.548878],[30.469417,50.548786],[30.469172,50.548704],[30.468919,50.548632],[30.468659,50.548571],[30.468394,50.548521],[30.468124,50.548482],[30.46785,50.548454],[30.467574,50.548438],[30.467297,50.548433],[30.467021,50.54844],[30.466745,50.548459],[30.466472,50.548488],[30.466203,50.54853],[30.465938,50.548582],[30.46568,50.548645],[30.465428,50.548719],[30.465185,50.548803],[30.46495,50.548897],[30.464726,50.549001],[30.464513,50.549114],[30.464312,50.549235],[30.464124,50.549365],[30.46395,50.549502],[30.46379,50.549646],[30.463645,50.549796],[30.463516,50.549952],[30.463403,50.550114],[30.463307,50.550279],[30.463229,50.550448],[30.463167,50.55062],[30.463124,50.550795],[30.463099,50.55097],[30.463091,50.551147],[30.463102,50.551323],[30.463131,50.551499],[30.463178,50.551673],[30.463242,50.551844],[30.463324,50.552013],[30.463424,50.552178],[30.463539,50.552338],[30.463672,50.552493],[30.463819,50.552642],[30.463982,50.552785],[30.464159,50.552921],[30.46435,50.553049],[30.464553,50.553169],[30.464768,50.55328],[30.464994,50.553382],[30.465231,50.553474],[30.465476,50.553556],[30.465729,50.553628],[30.465989,50.553689],[30.466254,50.553739],[30.466524,50.553778],[30.466798,50.553806],[30.467074,50.553822],[30.467351,50.553827],[30.467627,50.55382],[30.467903,50.553801],[30.468176,50.553772],[30.468445,50.55373],[30.46871,50.553678],[30.468969,50.553615],[30.46922,50.553541],[30.469464,50.553457],[30.469698,50.553363],[30.469922,50.553259],[30.470135,50.553146],[30.470336,50.553025],[30.470524,50.552895],[30.470698,50.552758],[30.470858,50.552614],[30.471003,50.552464],[30.471132,50.552307],[30.471245,50.552146],[30.471341,50.551981],[30.47142,50.551811],[30.471481,50.551639],[30.471524,50.551465],[30.471549,50.551289],[30.471557,50.551113],[30.471546,50.550937],[30.471517,50.550761],[30.47147,50.550587],[30.471406,50.550416],[30.471324,50.550247],[30.471224,50.550082],[30.471108,50.549922],[30.470976,50.549767],[30.470829,50.549618]]],[[[30.513842,50.481477],[30.51368,50.481334],[30.513503,50.481198],[30.513312,50.48107],[30.513109,50.480951],[30.512894,50.48084],[30.512668,50.480738],[30.512432,50.480646],[30.512187,50.480563],[30.511935,50.480492],[30.511675,50.480431],[30.51141,50.480381],[30.51114,50.480342],[30.510867,50.480314],[30.510592,50.480298],[30.510315,50.480294],[30.510039,50.480301],[30.509764,50.480319],[30.509491,50.480349],[30.509222,50.48039],[30.508958,50.480443],[30.5087,50.480506],[30.508449,50.48058],[30.508206,50.480664],[30.507972,50.480758],[30.507748,50.480862],[30.507536,50.480975],[30.507335,50.481096],[30.507147,50.481226],[30.506973,50.481363],[30.506814,50.481507],[30.506669,50.481658],[30.506541,50.481814],[30.506428,50.481975],[30.506332,50.482141],[30.506254,50.48231],[30.506193,50.482482],[30.50615,50.482657],[30.506125,50.482832],[30.506117,50.483009],[30.506128,50.483185],[30.506157,50.483361],[30.506204,50.483535],[30.506269,50.483706],[30.506351,50.483875],[30.50645,50.484039],[30.506566,50.4842],[30.506698,50.484355],[30.506846,50.484504],[30.507008,50.484647],[30.507185,50.484782],[30.507376,50.48491],[30.507579,50.48503],[30.507794,50.485141],[30.50802,50.485243],[30.508256,50.485335],[30.508501,50.485417],[30.508753,50.485489],[30.509013,50.48555],[30.509278,50.4856],[30.509548,50.485639],[30.509821,50.485666],[30.510097,50.485683],[30.510373,50.485687],[30.51065,50.48568],[30.510925,50.485662],[30.511197,50.485632],[30.511466,50.48559],[30.51173,50.485538],[30.511989,50.485475],[30.51224,50.485401],[30.512483,50.485317],[30.512717,50.485222],[30.51294,50.485119],[30.513153,50.485006],[30.513353,50.484884],[30.513541,50.484754],[30.513715,50.484617],[30.513875,50.484473],[30.514019,50.484323],[30.514148,50.484166],[30.51426,50.484005],[30.514356,50.48384],[30.514434,50.48367],[30.514495,50.483498],[30.514538,50.483324],[30.514564,50.483148],[30.514571,50.482972],[30.51456,50.482795],[30.514531,50.48262],[30.514484,50.482446],[30.514419,50.482274],[30.514337,50.482106],[30.514238,50.481941],[30.514122,50.481781],[30.51399,50.481626],[30.513842,50.481477]]],[[[30.522573,50.480839],[30.52241,50.480696],[30.522233,50.480561],[30.522042,50.480433],[30.521839,50.480313],[30.521624,50.480202],[30.521398,50.4801],[30.521162,50.480008],[30.520918,50.479926],[30.520665,50.479854],[30.520405,50.479793],[30.52014,50.479743],[30.51987,50.479705],[30.519597,50.479677],[30.519322,50.479661],[30.519045,50.479656],[30.518769,50.479663],[30.518494,50.479682],[30.518221,50.479712],[30.517952,50.479753],[30.517688,50.479806],[30.51743,50.479869],[30.517179,50.479943],[30.516936,50.480027],[30.516702,50.480121],[30.516478,50.480225],[30.516266,50.480338],[30.516065,50.48046],[30.515878,50.480589],[30.515704,50.480726],[30.515544,50.480871],[30.5154,50.481021],[30.515271,50.481177],[30.515159,50.481338],[30.515063,50.481504],[30.514985,50.481673],[30.514924,50.481845],[30.514881,50.48202],[30.514855,50.482196],[30.514848,50.482372],[30.514859,50.482548],[30.514888,50.482724],[30.514935,50.482898],[30.515,50.483069],[30.515082,50.483238],[30.515181,50.483403],[30.515297,50.483563],[30.515429,50.483718],[30.515577,50.483867],[30.515739,50.48401],[30.515916,50.484145],[30.516107,50.484273],[30.51631,50.484393],[30.516525,50.484504],[30.516751,50.484606],[30.516987,50.484698],[30.517232,50.48478],[30.517485,50.484852],[30.517744,50.484913],[30.518009,50.484963],[30.518279,50.485002],[30.518552,50.485029],[30.518828,50.485045],[30.519104,50.48505],[30.519381,50.485043],[30.519656,50.485024],[30.519715,50.485018],[30.51969,50.485186],[30.519683,50.485363],[30.519694,50.485539],[30.519723,50.485714],[30.51977,50.485888],[30.519835,50.48606],[30.519917,50.486229],[30.520016,50.486393],[30.520132,50.486553],[30.520264,50.486709],[30.520412,50.486858],[30.520575,50.487],[30.520752,50.487136],[30.520942,50.487264],[30.521146,50.487384],[30.521361,50.487495],[30.521587,50.487597],[30.521822,50.487689],[30.522067,50.487771],[30.52232,50.487842],[30.52258,50.487903],[30.522845,50.487954],[30.523115,50.487992],[30.523388,50.48802],[30.523663,50.488036],[30.52394,50.48804],[30.524216,50.488033],[30.524492,50.488015],[30.524764,50.487985],[30.525033,50.487944],[30.525297,50.487891],[30.525555,50.487828],[30.525807,50.487754],[30.52605,50.48767],[30.526283,50.487575],[30.526507,50.487472],[30.52672,50.487359],[30.52692,50.487237],[30.527108,50.487107],[30.527282,50.48697],[30.527441,50.486826],[30.527586,50.486676],[30.527714,50.486519],[30.527827,50.486358],[30.527922,50.486192],[30.528001,50.486023],[30.528062,50.485851],[30.528105,50.485677],[30.52813,50.485501],[30.528137,50.485325],[30.528126,50.485148],[30.528097,50.484973],[30.52805,50.484799],[30.527985,50.484627],[30.527903,50.484459],[30.527804,50.484294],[30.527688,50.484134],[30.527556,50.483979],[30.527408,50.48383],[30.527245,50.483687],[30.527068,50.483551],[30.526878,50.483423],[30.526675,50.483304],[30.52646,50.483193],[30.526234,50.483091],[30.525998,50.482999],[30.525753,50.482917],[30.5255,50.482845],[30.525241,50.482784],[30.524975,50.482734],[30.524706,50.482695],[30.524432,50.482668],[30.524157,50.482651],[30.52388,50.482647],[30.523604,50.482654],[30.523329,50.482672],[30.52327,50.482679],[30.523294,50.482511],[30.523301,50.482334],[30.52329,50.482158],[30.523261,50.481982],[30.523214,50.481808],[30.52315,50.481637],[30.523067,50.481468],[30.522968,50.481304],[30.522852,50.481143],[30.52272,50.480988],[30.522573,50.480839]]]]}}]}