{"type":"FeatureCollection","features":[{"type":"Feature","properties":{},"geometry":{"type":"Polygon","coordinates":[[[30.54227,50.483758],[30.537401,50.48369],[30.536486,50.483688],[30.534723,50.483696],[30.533355,50.483692],[30.532424,50.483678],[30.532217,50.483676],[30.532044,50.483673],[30.531893,50.48367],[30.531768,50.483666],[30.531675,50.483662],[30.53153,50.483655],[30.531419,50.483648],[30.531266,50.483635],[30.531161,50.483626],[30.531045,50.483615],[30.530818,50.483588],[30.530692,50.483571],[30.530549,50.483549],[30.530407,50.483528],[30.530249,50.483503],[30.52995,50.483451],[30.52954,50.483376],[30.529186,50.483314],[30.529006,50.483282],[30.528813,50.483248],[30.528665,50.483224],[30.528497,50.483198],[30.528421,50.483186],[30.528341,50.483176],[30.52818,50.483155],[30.52807,50.483142],[30.527962,50.483129],[30.527858,50.483118],[30.527771,50.48311],[30.527695,50.483103],[30.527556,50.483093],[30.527484,50.483088],[30.527399,50.483082],[30.52724,50.483073],[30.527162,50.483069],[30.527146,50.483068],[30.52709,50.483066],[30.526927,50.48306],[30.526499,50.483052],[30.526073,50.483048],[30.526067,50.483008],[30.526071,50.482691],[30.525569,50.482696],[30.524576,50.482703],[30.524017,50.482707],[30.522437,50.482722],[30.521484,50.482735],[30.521043,50.482741],[30.520856,50.482743],[30.520677,50.482746],[30.520556,50.482746],[30.520157,50.482749],[30.519601,50.482752],[30.518526,50.482771],[30.517797,50.482793],[30.516988,50.482829],[30.516226,50.482868],[30.515333,50.482914],[30.51442,50.482974],[30.513509,50.483049],[30.511164,50.483283],[30.510072,50.483391],[30.509615,50.483433],[30.509426,50.483447],[30.509321,50.483455],[30.508152,50.48354],[30.507387,50.483575],[30.506636,50.48359],[30.506122,50.483597],[30.505491,50.483596],[30.50494,50.483594],[30.504398,50.483591],[30.503318,50.483571],[30.502588,50.483533],[30.502267,50.483515],[30.50217,50.483505],[30.50175,50.483462],[30.501346,50.483398],[30.500911,50.483301],[30.500565,50.4832],[30.500238,50.483074],[30.499945,50.482932],[30.499637,50.482752],[30.499579,50.482717],[30.499342,50.482564],[30.499068,50.482368],[30.498981,50.482286],[30.498796,50.482111],[30.498731,50.482024],[30.498689,50.481968],[30.498632,50.481892],[30.498455,50.481625],[30.498375,50.481473],[30.498306,50.481326],[30.498237,50.481078],[30.498215,50.480782],[30.498231,50.480249],[30.498256,50.479771],[30.498264,50.479609],[30.498261,50.479446],[30.498255,50.479333],[30.498238,50.47923],[30.498223,50.479191],[30.498166,50.479081],[30.498097,50.478975],[30.497977,50.478827],[30.497859,50.478701],[30.497771,50.478596],[30.497126,50.477915],[30.496582,50.477236],[30.496346,50.477187],[30.496152,50.47716],[30.495996,50.47715],[30.495823,50.477152],[30.495639,50.477165],[30.495467,50.477202],[30.495258,50.477275],[30.494981,50.477417],[30.494799,50.477531],[30.488949,50.481137],[30.48842,50.481477],[30.487739,50.482037],[30.483097,50.48597],[30.482331,50.486639],[30.481956,50.486962],[30.481642,50.487187],[30.481246,50.487406],[30.480823,50.487576],[30.480369,50.4877],[30.479869,50.487807],[30.478937,50.487942],[30.478421,50.488014],[30.476786,50.488235],[30.475489,50.488427],[30.474112,50.488634],[30.473694,50.4887],[30.473289,50.488795],[30.472995,50.48889],[30.472842,50.488878],[30.472014,50.489044],[30.470951,50.489194],[30.470575,50.489245],[30.46992,50.48934],[30.468129,50.48958],[30.466949,50.489736],[30.466904,50.489739],[30.466786,50.489738],[30.466736,50.489731],[30.466551,50.489687],[30.466288,50.489844],[30.466122,50.489946],[30.465901,50.490081],[30.465194,50.490516],[30.465079,50.490601],[30.464993,50.490665],[30.464772,50.490835],[30.464393,50.491155],[30.463617,50.491901],[30.463461,50.49205],[30.463281,50.492214],[30.462675,50.492754],[30.462547,50.492868],[30.462399,50.492989],[30.461406,50.493813],[30.461377,50.493837],[30.461329,50.493878],[30.4609,50.494225],[30.460801,50.4943],[30.460667,50.4944],[30.460586,50.494458],[30.460154,50.494765],[30.459671,50.495078],[30.459431,50.495229],[30.459336,50.495281],[30.459283,50.495306],[30.459183,50.495355],[30.4589,50.495504],[30.458595,50.495662],[30.458429,50.495749],[30.45778,50.496084],[30.45716,50.496394],[30.45711,50.496424],[30.456446,50.496773],[30.45636,50.496825],[30.45616,50.496948],[30.45588,50.497126],[30.455713,50.497242],[30.454477,50.498164],[30.454206,50.498376],[30.453177,50.499169],[30.452835,50.499455],[30.452447,50.499765],[30.452122,50.50005],[30.451844,50.500288],[30.451781,50.500358],[30.451748,50.500425],[30.451733,50.500468],[30.45172,50.500578],[30.451692,50.500843],[30.451677,50.500965],[30.451656,50.501113],[30.451645,50.5012],[30.45158,50.501627],[30.451484,50.502214],[30.451477,50.502254],[30.451352,50.503107],[30.451296,50.503507],[30.451288,50.503546],[30.451221,50.503938],[30.451159,50.504303],[30.45109,50.504692],[30.451012,50.505083],[30.450959,50.505364],[30.450927,50.50556],[30.450873,50.505903],[30.450846,50.506051],[30.450823,50.506377],[30.450815,50.506512],[30.450806,50.506758],[30.45078,50.507287],[30.450738,50.50801],[30.450721,50.50827],[30.450714,50.508373],[30.450707,50.508454],[30.450624,50.50926],[30.450578,50.509639],[30.450526,50.510039],[30.45051,50.510154],[30.450391,50.510972],[30.450346,50.511278],[30.450324,50.51148],[30.450311,50.511598],[30.450275,50.511882],[30.45027,50.511924],[30.450257,50.512026],[30.450186,50.512518],[30.450171,50.512652],[30.450088,50.513237],[30.450071,50.513357],[30.449992,50.514129],[30.449964,50.514455],[30.449952,50.514591],[30.449935,50.514698],[30.449784,50.516034],[30.449773,50.516138],[30.44975,50.516322],[30.449695,50.51681],[30.449684,50.516861],[30.449679,50.516892],[30.44969,50.517469],[30.44966,50.517822],[30.449569,50.518443],[30.449474,50.51915],[30.449406,50.519664],[30.449345,50.52038],[30.449304,50.520554],[30.449168,50.52071],[30.448811,50.520806],[30.448762,50.520934],[30.448585,50.521305],[30.447797,50.523644],[30.447204,50.525216],[30.44715,50.525375],[30.446772,50.526497],[30.446727,50.526635],[30.446298,50.526591],[30.443163,50.526265],[30.441538,50.526117],[30.439689,50.52595],[30.438999,50.525901],[30.43829,50.525852],[30.437576,50.525801],[30.436887,50.525748],[30.436206,50.52569],[30.435498,50.525593],[30.434836,50.525467],[30.434502,50.525399],[30.434163,50.525307],[30.433527,50.525109],[30.432923,50.52488],[30.432359,50.524617],[30.431816,50.524331],[30.431315,50.524014],[30.430852,50.523683],[30.430383,50.523343],[30.429918,50.523007],[30.429444,50.522673],[30.428927,50.522365],[30.428352,50.522096],[30.427769,50.521853],[30.427133,50.521639],[30.426493,50.521463],[30.425838,50.521313],[30.425167,50.5212],[30.42446,50.521121],[30.423775,50.521064],[30.422948,50.520998],[30.422241,50.520946],[30.421542,50.520891],[30.42083,50.520838],[30.42014,50.520787],[30.419441,50.520736],[30.418741,50.520684],[30.418046,50.520633],[30.417329,50.52058],[30.416626,50.520529],[30.41593,50.520478],[30.415222,50.520426],[30.414524,50.520374],[30.413827,50.520323],[30.41312,50.520271],[30.412437,50.520221],[30.411731,50.520169],[30.411021,50.520117],[30.41032,50.520065],[30.409619,50.520014],[30.408927,50.519963],[30.408222,50.51991],[30.407524,50.519857],[30.40683,50.519805],[30.406126,50.519752],[30.40542,50.519699],[30.404722,50.519646],[30.404022,50.519594],[30.403313,50.51954],[30.402612,50.519488],[30.401919,50.519435],[30.401218,50.519382],[30.400513,50.519329],[30.399822,50.519277],[30.399122,50.519225],[30.398413,50.519171],[30.397708,50.519118],[30.397022,50.519067],[30.396511,50.519028],[30.395633,50.518962],[30.394922,50.518909],[30.392909,50.518758],[30.390137,50.518555],[30.387378,50.518341],[30.383827,50.518077],[30.380887,50.517856],[30.379216,50.517731],[30.374465,50.517379],[30.372823,50.517252],[30.372005,50.517192],[30.371229,50.517082],[30.370721,50.516988],[30.370282,50.516875],[30.369727,50.516714],[30.36912,50.516515],[30.366983,50.51585],[30.36669,50.515784],[30.366324,50.515711],[30.36595,50.515636],[30.365494,50.515581],[30.364795,50.515524],[30.364182,50.515514],[30.363716,50.515533],[30.36323,50.515559],[30.362758,50.515613],[30.361991,50.515744],[30.361738,50.515803],[30.361396,50.515901],[30.361336,50.51592],[30.361187,50.515971],[30.360888,50.516066],[30.360364,50.516235],[30.359217,50.516606],[30.356004,50.517564],[30.355035,50.517872],[30.353995,50.518282],[30.35343,50.51855],[30.352727,50.518866],[30.352293,50.519126],[30.351891,50.51939],[30.351147,50.51987],[30.350353,50.520359],[30.349388,50.520936],[30.348325,50.521553],[30.347165,50.52223],[30.345383,50.523259],[30.345286,50.523315],[30.345078,50.523435],[30.339929,50.526407],[30.337817,50.527622],[30.330331,50.531945],[30.328355,50.533085],[30.328135,50.533206],[30.32342,50.535967],[30.323084,50.536156],[30.319574,50.538143],[30.311995,50.542523],[30.311069,50.543058],[30.308576,50.544511],[30.30641,50.545783],[30.305412,50.546349],[30.304345,50.546957],[30.303331,50.547527],[30.303042,50.547692],[30.303162,50.54778],[30.302247,50.5483],[30.301208,50.548871],[30.300702,50.549186],[30.300352,50.54941],[30.29932,50.550196],[30.297486,50.551592],[30.297731,50.552128],[30.297869,50.552937],[30.298026,50.554419],[30.299894,50.553789],[30.301142,50.553314],[30.30179,50.553425],[30.30486,50.554205],[30.304986,50.554236],[30.305867,50.55445],[30.306492,50.55459],[30.307354,50.554782],[30.309187,50.555008],[30.310483,50.555137],[30.310643,50.555037],[30.310888,50.555084],[30.310852,50.555207],[30.311136,50.555249],[30.311393,50.554946],[30.312169,50.554439],[30.315532,50.55242],[30.317062,50.551595],[30.318363,50.550812],[30.319844,50.550012],[30.321483,50.54902],[30.322948,50.548072],[30.326456,50.546248],[30.326311,50.547789],[30.326254,50.548231],[30.326167,50.548909],[30.325999,50.550091],[30.327761,50.549665],[30.328235,50.549557],[30.328541,50.549513],[30.328814,50.549493],[30.3292,50.549509],[30.329431,50.549542],[30.329638,50.5496],[30.330091,50.549792],[30.330523,50.549993],[30.331634,50.55072],[30.332404,50.551168],[30.332656,50.5513],[30.332602,50.551332],[30.332499,50.551394],[30.332024,50.551649],[30.329749,50.552837],[30.329747,50.552918],[30.330805,50.553123],[30.331912,50.553233],[30.331954,50.553237],[30.330803,50.554268],[30.33175,50.554591],[30.331589,50.555097],[30.331254,50.555023],[30.330806,50.555509],[30.330677,50.555789],[30.331653,50.555793],[30.331626,50.555933],[30.331472,50.556721],[30.333393,50.557064],[30.335277,50.556901],[30.335738,50.556551],[30.335907,50.556423],[30.337067,50.556151],[30.337121,50.556462],[30.340383,50.55633],[30.341219,50.556401],[30.341575,50.55732],[30.337997,50.558664],[30.335082,50.558925],[30.334163,50.559007],[30.331632,50.559304],[30.326603,50.562295],[30.325644,50.562865],[30.326679,50.56375],[30.326387,50.563996],[30.326916,50.564551],[30.325791,50.564931],[30.322653,50.565991],[30.320366,50.566791],[30.317853,50.567531],[30.317485,50.567633],[30.310411,50.569607],[30.30723,50.570492],[30.309035,50.570682],[30.316658,50.57148],[30.324098,50.57226],[30.331572,50.573043],[30.339203,50.573842],[30.347842,50.573858],[30.355431,50.57371],[30.356136,50.573704],[30.358221,50.573684],[30.359409,50.573672],[30.361498,50.573653],[30.36264,50.573641],[30.363202,50.573636],[30.370647,50.573564],[30.370649,50.575638],[30.370668,50.577954],[30.370682,50.580791],[30.370704,50.582279],[30.370792,50.5858],[30.370809,50.586493],[30.377042,50.586433],[30.378457,50.586419],[30.385923,50.586364],[30.393654,50.586288],[30.401073,50.586239],[30.408574,50.586137],[30.416142,50.586078],[30.423763,50.586018],[30.431048,50.585945],[30.438706,50.585902],[30.440492,50.585888],[30.442858,50.585869],[30.444226,50.585859],[30.446801,50.585801],[30.447076,50.585805],[30.44725,50.585799],[30.447461,50.585792],[30.448216,50.5857],[30.454134,50.584977],[30.455632,50.584795],[30.456851,50.584644],[30.462212,50.583989],[30.463109,50.584345],[30.463273,50.582967],[30.463415,50.581302],[30.463826,50.576463],[30.464017,50.575335],[30.464613,50.571747],[30.469614,50.571994],[30.469839,50.572005],[30.471963,50.572109],[30.472336,50.57212],[30.47252,50.57212],[30.472711,50.572121],[30.4728,50.572121],[30.477183,50.572133],[30.479509,50.572201],[30.480616,50.572234],[30.481659,50.572266],[30.484994,50.569317],[30.484184,50.568888],[30.483767,50.568654],[30.483479,50.56845],[30.484098,50.568095],[30.484092,50.567746],[30.484186,50.567778],[30.487446,50.568899],[30.487727,50.568774],[30.490309,50.567631],[30.490408,50.567123],[30.490628,50.567078],[30.493831,50.566794],[30.495129,50.559933],[30.49633,50.556879],[30.49839,50.554534],[30.502038,50.551617],[30.508175,50.548645],[30.512767,50.546817],[30.517676,50.545301],[30.523942,50.542802],[30.526822,50.541233],[30.527297,50.540915],[30.532143,50.540337],[30.533307,50.539447],[30.534418,50.538349],[30.536333,50.537589],[30.538527,50.536389],[30.541461,50.534449],[30.543677,50.532031],[30.544514,50.529327],[30.54439,50.527117],[30.542979,50.524849],[30.540943,50.523198],[30.53796,50.524493],[30.537509,50.523858],[30.53412,50.518843],[30.531392,50.515573],[30.529205,50.512602],[30.527167,50.509716],[30.52603,50.506857],[30.525398,50.504014],[30.52549,50.502551],[30.52584,50.501088],[30.528376,50.498711],[30.531256,50.496907],[30.534827,50.49289],[30.536701,50.490931],[30.53779,50.489653],[30.539076,50.488144],[30.54135,50.486137],[30.542132,50.484838],[30.54227,50.483758]]]}}]}