{"type":"FeatureCollection","features":[{"type":"Feature","properties":{},"geometry":{"type":"Point","coordinates":[30.508061,50.51251]}},{"type":"Feature","properties":{},"geometry":{"type":"Point","coordinates":[30.505707,50.524121]}},{"type":"Feature","properties":{},"geometry":{"type":"Point","coordinates":[30.455267,50.513319]}},{"type":"Feature","properties":{},"geometry":{"type":"Point","coordinates":[30.504275,50.510538]}},{"type":"Feature","properties":{},"geometry":{"type":"Point","coordinates":[30.34763,50.546586]}},{"type":"Feature","properties":{},"geometry":{"type":"Point","coordinates":[30.495902,50.520858]}},{"type":"Feature","properties":{},"geometry":{"type":"Point","coordinates":[30.497796,50.511488]}},{"type":"Feature","properties":{},"geometry":{"type":"Point","coordinates":[30.518389,50.522444]}},{"type":"Feature","properties":{},"geometry":{"type":"Point","coordinates":[30.368915,50.530702]}},{"type":"Feature","properties":{},"geometry":{"type":"Point","coordinates":[30.51158,50.526269]}},{"type":"Feature","properties":{},"geometry":{"type":"Point","coordinates":[30.52391,50.485344]}},{"type":"Feature","properties":{},"geometry":{"type":"Point","coordinates":[30.456867,50.51298]}},{"type":"Feature","properties":{},"geometry":{"type":"Point","coordinates":[30.521477,50.4964]}},{"type":"Feature","properties":{},"geometry":{"type":"Point","coordinates":[30.493983,50.522113]}},{"type":"Feature","properties":{},"geometry":{"type":"Point","coordinates":[30.507033,50.493364]}},{"type":"Feature","properties":{},"geometry":{"type":"Point","coordinates":[30.52199,50.494649]}},{"type":"Feature","properties":{},"geometry":{"type":"Point","coordinates":[30.50725,50.49353]}},{"type":"Feature","properties":{},"geometry":{"type":"Point","coordinates":[30.506798,50.518806]}},{"type":"Feature","properties":{},"geometry":{"type":"Point","coordinates":[30.523979,50.493765]}},{"type":"Feature","properties":{},"geometry":{"type":"Point","coordinates":[30.502148,50.496341]}},{"type":"Feature","properties":{},"geometry":{"type":"Point","coordinates":[30.514697,50.501904]}},{"type":"Feature","properties":{},"geometry":{"type":"Point","coordinates":[30.49897,50.502252]}},{"type":"Feature","properties":{},"geometry":{"type":"Point","coordinates":[30.467324,50.55113]}},{"type":"Feature","properties":{},"geometry":{"type":"Point","coordinates":[30.45528,50.511152]}},{"type":"Feature","properties":{},"geometry":{"type":"Point","coordinates":[30.461373,50.500021]}},{"type":"Feature","properties":{},"geometry":{"type":"Point","coordinates":[30.496411,50.51605]}},{"type":"Feature","properties":{},"geometry":{"type":"Point","coordinates":[30.454724,50.50149]}},{"type":"Feature","properties":{},"geometry":{"type":"Point","coordinates":[30.500215,50.513649]}},{"type":"Feature","properties":{},"geometry":{"type":"Point","coordinates":[30.457884,50.52642]}},{"type":"Feature","properties":{},"geometry":{"type":"Point","coordinates":[30.501492,50.514476]}},{"type":"Feature","properties":{},"geometry":{"type":"Point","coordinates":[30.517002,50.500781]}},{"type":"Feature","properties":{},"geometry":{"type":"Point","coordinates":[30.487742,50.520682]}},{"type":"Feature","properties":{},"geometry":{"type":"Point","coordinates":[30.533604,50.4858]}},{"type":"Feature","properties":{},"geometry":{"type":"Point","coordinates":[30.503496,50.519938]}},{"type":"Feature","properties":{},"geometry":{"type":"Point","coordinates":[30.502151,50.504086]}},{"type":"Feature","properties":{},"geometry":{"type":"Point","coordinates":[30.487118,50.514545]}},{"type":"Feature","properties":{},"geometry":{"type":"Point","coordinates":[30.519158,50.499787]}},{"type":"Feature","properties":{},"geometry":{"type":"Point","coordinates":[30.497511,50.486959]}},{"type":"Feature","properties":{},"geometry":{"type":"Point","coordinates":[30.508008,50.514881]}},{"type":"Feature","properties":{},"geometry":{"type":"Point","coordinates":[30.451584,50.518822]}},{"type":"Feature","properties":{},"geometry":{"type":"Point","coordinates":[30.497503,50.502247]}},{"type":"Feature","properties":{},"geometry":{"type":"Point","coordinates":[30.512276,50.507999]}},{"type":"Feature","properties":{},"geometry":{"type":"Point","coordinates":[30.474243,50.517655]}},{"type":"Feature","properties":{},"geometry":{"type":"Point","coordinates":[30.459831,50.501131]}},{"type":"Feature","properties":{},"geometry":{"type":"Point","coordinates":[30.503585,50.525882]}},{"type":"Feature","properties":{},"geometry":{"type":"Point","coordinates":[30.503148,50.515125]}},{"type":"Feature","properties":{},"geometry":{"type":"Point","coordinates":[30.518958,50.498915]}},{"type":"Feature","properties":{},"geometry":{"type":"Point","coordinates":[30.502758,50.516891]}},{"type":"Feature","properties":{},"geometry":{"type":"Point","coordinates":[30.498059,50.5223]}},{"type":"Feature","properties":{},"geometry":{"type":"Point","coordinates":[30.517893,50.494038]}},{"type":"Feature","properties":{},"geometry":{"type":"Point","coordinates":[30.509135,50.515848]}},{"type":"Feature","properties":{},"geometry":{"type":"Point","coordinates":[30.488722,50.522878]}},{"type":"Feature","properties":{},"geometry":{"type":"Point","coordinates":[30.512987,50.51899]}},{"type":"Feature","properties":{},"geometry":{"type":"Point","coordinates":[30.51635,50.500149]}},{"type":"Feature","properties":{},"geometry":{"type":"Point","coordinates":[30.517438,50.520682]}},{"type":"Feature","properties":{},"geometry":{"type":"Point","coordinates":[30.529283,50.489951]}},{"type":"Feature","properties":{},"geometry":{"type":"Point","coordinates":[30.487574,50.504943]}},{"type":"Feature","properties":{},"geometry":{"type":"Point","coordinates":[30.511447,50.526152]}},{"type":"Feature","properties":{},"geometry":{"type":"Point","coordinates":[30.511781,50.494054]}},{"type":"Feature","properties":{},"geometry":{"type":"Point","coordinates":[30.451922,50.504071]}},{"type":"Feature","properties":{},"geometry":{"type":"Point","coordinates":[30.509473,50.524293]}},{"type":"Feature","properties":{},"geometry":{"type":"Point","coordinates":[30.516542,50.498802]}},{"type":"Feature","properties":{},"geometry":{"type":"Point","coordinates":[30.507488,50.501342]}},{"type":"Feature","properties":{},"geometry":{"type":"Point","coordinates":[30.480217,50.488482]}},{"type":"Feature","properties":{},"geometry":{"type":"Point","coordinates":[30.506609,50.513906]}},{"type":"Feature","properties":{},"geometry":{"type":"Point","coordinates":[30.461812,50.52147]}},{"type":"Feature","properties":{},"geometry":{"type":"Point","coordinates":[30.489423,50.511385]}},{"type":"Feature","properties":{},"geometry":{"type":"Point","coordinates":[30.484912,50.520313]}},{"type":"Feature","properties":{},"geometry":{"type":"Point","coordinates":[30.506903,50.517541]}},{"type":"Feature","properties":{},"geometry":{"type":"Point","coordinates":[30.51176,50.51682]}},{"type":"Feature","properties":{},"geometry":{"type":"Point","coordinates":[30.512111,50.508849]}},{"type":"Feature","properties":{},"geometry":{"type":"Point","coordinates":[30.518107,50.526496]}},{"type":"Feature","properties":{},"geometry":{"type":"Point","coordinates":[30.522857,50.495634]}},{"type":"Feature","properties":{},"geometry":{"type":"Point","coordinates":[30.50762,50.527343]}},{"type":"Feature","properties":{},"geometry":{"type":"Point","coordinates":[30.458907,50.501002]}},{"type":"Feature","properties":{},"geometry":{"type":"Point","coordinates":[30.498198,50.486917]}},{"type":"Feature","properties":{},"geometry":{"type":"Point","coordinates":[30.49747,50.500921]}},{"type":"Feature","properties":{},"geometry":{"type":"Point","coordinates":[30.49134,50.5095]}},{"type":"Feature","properties":{},"geometry":{"type":"Point","coordinates":[30.504996,50.50077]}},{"type":"Feature","properties":{},"geometry":{"type":"Point","coordinates":[30.485339,50.543637]}},{"type":"Feature","properties":{},"geometry":{"type":"Point","coordinates":[30.51581,50.501246]}},{"type":"Feature","properties":{},"geometry":{"type":"Point","coordinates":[30.506187,50.527236]}},{"type":"Feature","properties":{},"geometry":{"type":"Point","coordinates":[30.50848,50.5117]}},{"type":"Feature","properties":{},"geometry":{"type":"Point","coordinates":[30.464272,50.56718]}},{"type":"Feature","properties":{},"geometry":{"type":"Point","coordinates":[30.351495,50.555711]}},{"type":"Feature","properties":{},"geometry":{"type":"Point","coordinates":[30.497361,50.498845]}},{"type":"Feature","properties":{},"geometry":{"type":"Point","coordinates":[30.499606,50.522314]}},{"type":"Feature","properties":{},"geometry":{"type":"Point","coordinates":[30.504148,50.494444]}},{"type":"Feature","properties":{},"geometry":{"type":"Point","coordinates":[30.512871,50.5217]}},{"type":"Feature","properties":{},"geometry":{"type":"Point","coordinates":[30.523126,50.494088]}},{"type":"Feature","properties":{},"geometry":{"type":"Point","coordinates":[30.496652,50.524369]}},{"type":"Feature","properties":{},"geometry":{"type":"Point","coordinates":[30.513524,50.505873]}},{"type":"Feature","properties":{},"geometry":{"type":"Point","coordinates":[30.516307,50.49989]}},{"type":"Feature","properties":{},"geometry":{"type":"Point","coordinates":[30.467437,50.522584]}},{"type":"Feature","properties":{},"geometry":{"type":"Point","coordinates":[30.457273,50.519694]}},{"type":"Feature","properties":{},"geometry":{"type":"Point","coordinates":[30.492716,50.51976]}},{"type":"Feature","properties":{},"geometry":{"type":"Point","coordinates":[30.453683,50.516437]}},{"type":"Feature","properties":{},"geometry":{"type":"Point","coordinates":[30.497235,50.507292]}},{"type":"Feature","properties":{},"geometry":{"type":"Point","coordinates":[30.500236,50.526612]}},{"type":"Feature","properties":{},"geometry":{"type":"Point","coordinates":[30.452672,50.521469]}},{"type":"Feature","properties":{},"geometry":{"type":"Point","coordinates":[30.486678,50.50529]}},{"type":"Feature","properties":{},"geometry":{"type":"Point","coordinates":[30.462214,50.508709]}},{"type":"Feature","properties":{},"geometry":{"type":"Point","coordinates":[30.467844,50.499007]}},{"type":"Feature","properties":{},"geometry":{"type":"Point","coordinates":[30.518906,50.499985]}},{"type":"Feature","properties":{},"geometry":{"type":"Point","coordinates":[30.453902,50.507658]}},{"type":"Feature","properties":{},"geometry":{"type":"Point","coordinates":[30.493968,50.521664]}},{"type":"Feature","properties":{},"geometry":{"type":"Point","coordinates":[30.491553,50.514879]}},{"type":"Feature","properties":{},"geometry":{"type":"Point","coordinates":[30.519634,50.496211]}},{"type":"Feature","properties":{},"geometry":{"type":"Point","coordinates":[30.36631,50.528035]}},{"type":"Feature","properties":{},"geometry":{"type":"Point","coordinates":[30.45474,50.512806]}},{"type":"Feature","properties":{},"geometry":{"type":"Point","coordinates":[30.499609,50.522971]}},{"type":"Feature","properties":{},"geometry":{"type":"Point","coordinates":[30.453691,50.501862]}},{"type":"Feature","properties":{},"geometry":{"type":"Point","coordinates":[30.455046,50.498319]}},{"type":"Feature","properties":{},"geometry":{"type":"Point","coordinates":[30.452124,50.502546]}},{"type":"Feature","properties":{},"geometry":{"type":"Point","coordinates":[30.490042,50.489343]}},{"type":"Feature","properties":{},"geometry":{"type":"Point","coordinates":[30.48961,50.524069]}},{"type":"Feature","properties":{},"geometry":{"type":"Point","coordinates":[30.49623,50.51821]}},{"type":"Feature","properties":{},"geometry":{"type":"Point","coordinates":[30.490612,50.517628]}},{"type":"Feature","properties":{},"geometry":{"type":"Point","coordinates":[30.509658,50.508951]}},{"type":"Feature","properties":{},"geometry":{"type":"Point","coordinates":[30.463227,50.516901]}},{"type":"Feature","properties":{},"geometry":{"type":"Point","coordinates":[30.50922,50.498824]}},{"type":"Feature","properties":{},"geometry":{"type":"Point","coordinates":[30.503069,50.527013]}},{"type":"Feature","properties":{},"geometry":{"type":"Point","coordinates":[30.491718,50.507351]}},{"type":"Feature","properties":{},"geometry":{"type":"Point","coordinates":[30.367301,50.527423]}},{"type":"Feature","properties":{},"geometry":{"type":"Point","coordinates":[30.46564,50.515838]}},{"type":"Feature","properties":{},"geometry":{"type":"Point","coordinates":[30.498134,50.523003]}},{"type":"Feature","properties":{},"geometry":{"type":"Point","coordinates":[30.49623,50.510208]}},{"type":"Feature","properties":{},"geometry":{"type":"Point","coordinates":[30.454966,50.522704]}},{"type":"Feature","properties":{},"geometry":{"type":"Point","coordinates":[30.453321,50.515832]}},{"type":"Feature","properties":{},"geometry":{"type":"Point","coordinates":[30.466891,50.521846]}},{"type":"Feature","properties":{},"geometry":{"type":"Point","coordinates":[30.496588,50.500888]}},{"type":"Feature","properties":{},"geometry":{"type":"Point","coordinates":[30.487644,50.512254]}},{"type":"Feature","properties":{},"geometry":{"type":"Point","coordinates":[30.49928,50.50087]}},{"type":"Feature","properties":{},"geometry":{"type":"Point","coordinates":[30.507709,50.510853]}},{"type":"Feature","properties":{},"geometry":{"type":"Point","coordinates":[30.511887,50.499452]}},{"type":"Feature","properties":{},"geometry":{"type":"Point","coordinates":[30.518657,50.519861]}},{"type":"Feature","properties":{},"geometry":{"type":"Point","coordinates":[30.524134,50.492157]}},{"type":"Feature","properties":{},"geometry":{"type":"Point","coordinates":[30.49938,50.507574]}},{"type":"Feature","properties":{},"geometry":{"type":"Point","coordinates":[30.455156,50.523883]}},{"type":"Feature","properties":{},"geometry":{"type":"Point","coordinates":[30.461877,50.519646]}},{"type":"Feature","properties":{},"geometry":{"type":"Point","coordinates":[30.3511,50.54402]}},{"type":"Feature","properties":{},"geometry":{"type":"Point","coordinates":[30.48948,50.513697]}},{"type":"Feature","properties":{},"geometry":{"type":"Point","coordinates":[30.522551,50.501232]}},{"type":"Feature","properties":{},"geometry":{"type":"Point","coordinates":[30.35227,50.53946]}},{"type":"Feature","properties":{},"geometry":{"type":"Point","coordinates":[30.48874,50.515114]}},{"type":"Feature","properties":{},"geometry":{"type":"Point","coordinates":[30.457232,50.502133]}},{"type":"Feature","properties":{},"geometry":{"type":"Point","coordinates":[30.356638,50.535574]}},{"type":"Feature","properties":{},"geometry":{"type":"Point","coordinates":[30.462884,50.510359]}},{"type":"Feature","properties":{},"geometry":{"type":"Point","coordinates":[30.463209,50.510897]}},{"type":"Feature","properties":{},"geometry":{"type":"Point","coordinates":[30.357473,50.530485]}},{"type":"Feature","properties":{},"geometry":{"type":"Point","coordinates":[30.510833,50.51792]}},{"type":"Feature","properties":{},"geometry":{"type":"Point","coordinates":[30.463355,50.516108]}},{"type":"Feature","properties":{},"geometry":{"type":"Point","coordinates":[30.509141,50.509787]}},{"type":"Feature","properties":{},"geometry":{"type":"Point","coordinates":[30.504151,50.517133]}},{"type":"Feature","properties":{},"geometry":{"type":"Point","coordinates":[30.510028,50.491877]}},{"type":"Feature","properties":{},"geometry":{"type":"Point","coordinates":[30.495766,50.505967]}},{"type":"Feature","properties":{},"geometry":{"type":"Point","coordinates":[30.505875,50.505837]}},{"type":"Feature","properties":{},"geometry":{"type":"Point","coordinates":[30.515229,50.494161]}},{"type":"Feature","properties":{},"geometry":{"type":"Point","coordinates":[30.457476,50.507339]}},{"type":"Feature","properties":{},"geometry":{"type":"Point","coordinates":[30.495291,50.508012]}},{"type":"Feature","properties":{},"geometry":{"type":"Point","coordinates":[30.493279,50.517781]}},{"type":"Feature","properties":{},"geometry":{"type":"Point","coordinates":[30.356982,50.541573]}},{"type":"Feature","properties":{},"geometry":{"type":"Point","coordinates":[30.498496,50.511528]}},{"type":"Feature","properties":{},"geometry":{"type":"Point","coordinates":[30.451048,50.512273]}},{"type":"Feature","properties":{},"geometry":{"type":"Point","coordinates":[30.351307,50.544125]}},{"type":"Feature","properties":{},"geometry":{"type":"Point","coordinates":[30.454752,50.499105]}},{"type":"Feature","properties":{},"geometry":{"type":"Point","coordinates":[30.507643,50.506232]}},{"type":"Feature","properties":{},"geometry":{"type":"Point","coordinates":[30.349552,50.545647]}},{"type":"Feature","properties":{},"geometry":{"type":"Point","coordinates":[30.519729,50.49393]}},{"type":"Feature","properties":{},"geometry":{"type":"Point","coordinates":[30.501626,50.514378]}},{"type":"Feature","properties":{},"geometry":{"type":"Point","coordinates":[30.518589,50.497343]}},{"type":"Feature","properties":{},"geometry":{"type":"Point","coordinates":[30.35756,50.530531]}},{"type":"Feature","properties":{},"geometry":{"type":"Point","coordinates":[30.51617,50.499945]}},{"type":"Feature","properties":{},"geometry":{"type":"Point","coordinates":[30.450413,50.520273]}},{"type":"Feature","properties":{},"geometry":{"type":"Point","coordinates":[30.493779,50.51845]}},{"type":"Feature","properties":{},"geometry":{"type":"Point","coordinates":[30.485312,50.518383]}},{"type":"Feature","properties":{},"geometry":{"type":"Point","coordinates":[30.491124,50.524615]}},{"type":"Feature","properties":{},"geometry":{"type":"Point","coordinates":[30.464144,50.505783]}},{"type":"Feature","properties":{},"geometry":{"type":"Point","coordinates":[30.509587,50.522079]}},{"type":"Feature","properties":{},"geometry":{"type":"Point","coordinates":[30.507143,50.521031]}},{"type":"Feature","properties":{},"geometry":{"type":"Point","coordinates":[30.503899,50.527504]}},{"type":"Feature","properties":{},"geometry":{"type":"Point","coordinates":[30.517082,50.526248]}},{"type":"Feature","properties":{},"geometry":{"type":"Point","coordinates":[30.362296,50.527113]}},{"type":"Feature","properties":{},"geometry":{"type":"Point","coordinates":[30.501557,50.517998]}},{"type":"Feature","properties":{},"geometry":{"type":"Point","coordinates":[30.513035,50.496036]}},{"type":"Feature","properties":{},"geometry":{"type":"Point","coordinates":[30.50279,50.489252]}},{"type":"Feature","properties":{},"geometry":{"type":"Point","coordinates":[30.520707,50.495061]}},{"type":"Feature","properties":{},"geometry":{"type":"Point","coordinates":[30.519463,50.492649]}},{"type":"Feature","properties":{},"geometry":{"type":"Point","coordinates":[30.504519,50.514569]}},{"type":"Feature","properties":{},"geometry":{"type":"Point","coordinates":[30.518419,50.492523]}},{"type":"Feature","properties":{},"geometry":{"type":"Point","coordinates":[30.51704,50.52789]}},{"type":"Feature","properties":{},"geometry":{"type":"Point","coordinates":[30.462135,50.525982]}},{"type":"Feature","properties":{},"geometry":{"type":"Point","coordinates":[30.493031,50.52503]}},{"type":"Feature","properties":{},"geometry":{"type":"Point","coordinates":[30.455508,50.508185]}},{"type":"Feature","properties":{},"geometry":{"type":"Point","coordinates":[30.496038,50.513517]}},{"type":"Feature","properties":{},"geometry":{"type":"Point","coordinates":[30.50857,50.508811]}},{"type":"Feature","properties":{},"geometry":{"type":"Point","coordinates":[30.515167,50.494284]}},{"type":"Feature","properties":{},"geometry":{"type":"Point","coordinates":[30.492407,50.524094]}},{"type":"Feature","properties":{},"geometry":{"type":"Point","coordinates":[30.5165,50.499395]}},{"type":"Feature","properties":{},"geometry":{"type":"Point","coordinates":[30.505661,50.498524]}},{"type":"Feature","properties":{},"geometry":{"type":"Point","coordinates":[30.457792,50.503873]}},{"type":"Feature","properties":{},"geometry":{"type":"Point","coordinates":[30.470326,50.504229]}},{"type":"Feature","properties":{},"geometry":{"type":"Point","coordinates":[30.490694,50.522508]}},{"type":"Feature","properties":{},"geometry":{"type":"Point","coordinates":[30.468301,50.52147]}},{"type":"Feature","properties":{},"geometry":{"type":"Point","coordinates":[30.499305,50.513057]}},{"type":"Feature","properties":{},"geometry":{"type":"Point","coordinates":[30.510728,50.493884]}},{"type":"Feature","properties":{},"geometry":{"type":"Point","coordinates":[30.458356,50.503214]}},{"type":"Feature","properties":{},"geometry":{"type":"Point","coordinates":[30.471826,50.492122]}},{"type":"Feature","properties":{},"geometry":{"type":"Point","coordinates":[30.527148,50.491532]}},{"type":"Feature","properties":{},"geometry":{"type":"Point","coordinates":[30.497884,50.513064]}},{"type":"Feature","properties":{},"geometry":{"type":"Point","coordinates":[30.457911,50.498515]}},{"type":"Feature","properties":{},"geometry":{"type":"Point","coordinates":[30.522509,50.501254]}},{"type":"Feature","properties":{},"geometry":{"type":"Point","coordinates":[30.498007,50.52282]}},{"type":"Feature","properties":{},"geometry":{"type":"Point","coordinates":[30.507734,50.508764]}},{"type":"Feature","properties":{},"geometry":{"type":"Point","coordinates":[30.513277,50.522406]}},{"type":"Feature","properties":{},"geometry":{"type":"Point","coordinates":[30.508911,50.505449]}},{"type":"Feature","properties":{},"geometry":{"type":"Point","coordinates":[30.489193,50.518652]}},{"type":"Feature","properties":{},"geometry":{"type":"Point","coordinates":[30.520379,50.523792]}},{"type":"Feature","properties":{},"geometry":{"type":"Point","coordinates":[30.498975,50.502317]}},{"type":"Feature","properties":{},"geometry":{"type":"Point","coordinates":[30.509262,50.494211]}},{"type":"Feature","properties":{},"geometry":{"type":"Point","coordinates":[30.454579,50.504963]}},{"type":"Feature","properties":{},"geometry":{"type":"Point","coordinates":[30.498913,50.500907]}},{"type":"Feature","properties":{},"geometry":{"type":"Point","coordinates":[30.486486,50.522779]}},{"type":"Feature","properties":{},"geometry":{"type":"Point","coordinates":[30.520276,50.52211]}},{"type":"Feature","properties":{},"geometry":{"type":"Point","coordinates":[30.505608,50.492715]}},{"type":"Feature","properties":{},"geometry":{"type":"Point","coordinates":[30.497186,50.508405]}},{"type":"Feature","properties":{},"geometry":{"type":"Point","coordinates":[30.365005,50.528669]}},{"type":"Feature","properties":{},"geometry":{"type":"Point","coordinates":[30.5193,50.524084]}},{"type":"Feature","properties":{},"geometry":{"type":"Point","coordinates":[30.506895,50.519485]}},{"type":"Feature","properties":{},"geometry":{"type":"Point","coordinates":[30.34126,50.554009]}},{"type":"Feature","properties":{},"geometry":{"type":"Point","coordinates":[30.500766,50.527116]}},{"type":"Feature","properties":{},"geometry":{"type":"Point","coordinates":[30.49516,50.524088]}},{"type":"Feature","properties":{},"geometry":{"type":"Point","coordinates":[30.513729,50.523618]}},{"type":"Feature","properties":{},"geometry":{"type":"Point","coordinates":[30.513023,50.52108]}},{"type":"Feature","properties":{},"geometry":{"type":"Point","coordinates":[30.495131,50.515315]}},{"type":"Feature","properties":{},"geometry":{"type":"Point","coordinates":[30.489087,50.505259]}},{"type":"Feature","properties":{},"geometry":{"type":"Point","coordinates":[30.459699,50.501661]}},{"type":"Feature","properties":{},"geometry":{"type":"Point","coordinates":[30.512138,50.506566]}},{"type":"Feature","properties":{},"geometry":{"type":"Point","coordinates":[30.485948,50.511565]}},{"type":"Feature","properties":{},"geometry":{"type":"Point","coordinates":[30.50145,50.508106]}},{"type":"Feature","properties":{},"geometry":{"type":"Point","coordinates":[30.496232,50.510976]}},{"type":"Feature","properties":{},"geometry":{"type":"Point","coordinates":[30.5264,50.490868]}},{"type":"Feature","properties":{},"geometry":{"type":"Point","coordinates":[30.509625,50.511129]}},{"type":"Feature","properties":{},"geometry":{"type":"Point","coordinates":[30.474588,50.506784]}},{"type":"Feature","properties":{},"geometry":{"type":"Point","coordinates":[30.488221,50.523227]}},{"type":"Feature","properties":{},"geometry":{"type":"Point","coordinates":[30.466912,50.521212]}},{"type":"Feature","properties":{},"geometry":{"type":"Point","coordinates":[30.452624,50.520206]}},{"type":"Feature","properties":{},"geometry":{"type":"Point","coordinates":[30.498874,50.523015]}},{"type":"Feature","properties":{},"geometry":{"type":"Point","coordinates":[30.487824,50.516058]}},{"type":"Feature","properties":{},"geometry":{"type":"Point","coordinates":[30.506186,50.508139]}},{"type":"Feature","properties":{},"geometry":{"type":"Point","coordinates":[30.49486,50.513648]}},{"type":"Feature","properties":{},"geometry":{"type":"Point","coordinates":[30.498501,50.522063]}},{"type":"Feature","properties":{},"geometry":{"type":"Point","coordinates":[30.523116,50.495565]}},{"type":"Feature","properties":{},"geometry":{"type":"Point","coordinates":[30.496906,50.489626]}},{"type":"Feature","properties":{},"geometry":{"type":"Point","coordinates":[30.464374,50.568292]}},{"type":"Feature","properties":{},"geometry":{"type":"Point","coordinates":[30.349623,50.543017]}},{"type":"Feature","properties":{},"geometry":{"type":"Point","coordinates":[30.341605,50.553746]}},{"type":"Feature","properties":{},"geometry":{"type":"Point","coordinates":[30.516356,50.517626]}},{"type":"Feature","properties":{},"geometry":{"type":"Point","coordinates":[30.513138,50.50645]}},{"type":"Feature","properties":{},"geometry":{"type":"Point","coordinates":[30.491357,50.518425]}},{"type":"Feature","properties":{},"geometry":{"type":"Point","coordinates":[30.493627,50.515511]}},{"type":"Feature","properties":{},"geometry":{"type":"Point","coordinates":[30.487859,50.509094]}},{"type":"Feature","properties":{},"geometry":{"type":"Point","coordinates":[30.49151,50.519868]}},{"type":"Feature","properties":{},"geometry":{"type":"Point","coordinates":[30.497853,50.523875]}},{"type":"Feature","properties":{},"geometry":{"type":"Point","coordinates":[30.46746,50.53693]}},{"type":"Feature","properties":{},"geometry":{"type":"Point","coordinates":[30.49164,50.509564]}},{"type":"Feature","properties":{},"geometry":{"type":"Point","coordinates":[30.490221,50.523197]}},{"type":"Feature","properties":{},"geometry":{"type":"Point","coordinates":[30.452078,50.50677]}},{"type":"Feature","properties":{},"geometry":{"type":"Point","coordinates":[30.460822,50.521536]}},{"type":"Feature","properties":{},"geometry":{"type":"Point","coordinates":[30.452876,50.5218]}},{"type":"Feature","properties":{},"geometry":{"type":"Point","coordinates":[30.507606,50.506181]}},{"type":"Feature","properties":{},"geometry":{"type":"Point","coordinates":[30.512545,50.506174]}},{"type":"Feature","properties":{},"geometry":{"type":"Point","coordinates":[30.495432,50.51909]}},{"type":"Feature","properties":{},"geometry":{"type":"Point","coordinates":[30.465755,50.521211]}},{"type":"Feature","properties":{},"geometry":{"type":"Point","coordinates":[30.506848,50.499545]}},{"type":"Feature","properties":{},"geometry":{"type":"Point","coordinates":[30.509735,50.527145]}},{"type":"Feature","properties":{},"geometry":{"type":"Point","coordinates":[30.487862,50.51973]}},{"type":"Feature","properties":{},"geometry":{"type":"Point","coordinates":[30.492157,50.517584]}},{"type":"Feature","properties":{},"geometry":{"type":"Point","coordinates":[30.449867,50.519153]}},{"type":"Feature","properties":{},"geometry":{"type":"Point","coordinates":[30.506435,50.496436]}},{"type":"Feature","properties":{},"geometry":{"type":"Point","coordinates":[30.504782,50.512941]}},{"type":"Feature","properties":{},"geometry":{"type":"Point","coordinates":[30.466341,50.522509]}},{"type":"Feature","properties":{},"geometry":{"type":"Point","coordinates":[30.48773,50.513293]}},{"type":"Feature","properties":{},"geometry":{"type":"Point","coordinates":[30.524413,50.492652]}},{"type":"Feature","properties":{},"geometry":{"type":"Point","coordinates":[30.512944,50.519599]}},{"type":"Feature","properties":{},"geometry":{"type":"Point","coordinates":[30.340593,50.553803]}},{"type":"Feature","properties":{},"geometry":{"type":"Point","coordinates":[30.457384,50.508222]}},{"type":"Feature","properties":{},"geometry":{"type":"Point","coordinates":[30.451786,50.520026]}},{"type":"Feature","properties":{},"geometry":{"type":"Point","coordinates":[30.507531,50.506085]}},{"type":"Feature","properties":{},"geometry":{"type":"Point","coordinates":[30.487917,50.509192]}},{"type":"Feature","properties":{},"geometry":{"type":"Point","coordinates":[30.506293,50.503512]}},{"type":"Feature","properties":{},"geometry":{"type":"Point","coordinates":[30.498866,50.522298]}},{"type":"Feature","properties":{},"geometry":{"type":"Point","coordinates":[30.4883,50.505947]}},{"type":"Feature","properties":{},"geometry":{"type":"Point","coordinates":[30.499237,50.507187]}},{"type":"Feature","properties":{},"geometry":{"type":"Point","coordinates":[30.500734,50.50163]}},{"type":"Feature","properties":{},"geometry":{"type":"Point","coordinates":[30.504988,50.500656]}},{"type":"Feature","properties":{},"geometry":{"type":"Point","coordinates":[30.459388,50.522115]}},{"type":"Feature","properties":{},"geometry":{"type":"Point","coordinates":[30.459194,50.52]}},{"type":"Feature","properties":{},"geometry":{"type":"Point","coordinates":[30.464335,50.52096]}},{"type":"Feature","properties":{},"geometry":{"type":"Point","coordinates":[30.450207,50.516672]}},{"type":"Feature","properties":{},"geometry":{"type":"Point","coordinates":[30.450353,50.51553]}},{"type":"Feature","properties":{},"geometry":{"type":"Point","coordinates":[30.490225,50.52506]}},{"type":"Feature","properties":{},"geometry":{"type":"Point","coordinates":[30.511647,50.506361]}},{"type":"Feature","properties":{},"geometry":{"type":"Point","coordinates":[30.487319,50.506075]}},{"type":"Feature","properties":{},"geometry":{"type":"Point","coordinates":[30.512678,50.521741]}},{"type":"Feature","properties":{},"geometry":{"type":"Point","coordinates":[30.493423,50.503324]}},{"type":"Feature","properties":{},"geometry":{"type":"Point","coordinates":[30.492838,50.50334]}},{"type":"Feature","properties":{},"geometry":{"type":"Point","coordinates":[30.45086,50.518058]}},{"type":"Feature","properties":{},"geometry":{"type":"Point","coordinates":[30.451459,50.514266]}},{"type":"Feature","properties":{},"geometry":{"type":"Point","coordinates":[30.456412,50.499916]}},{"type":"Feature","properties":{},"geometry":{"type":"Point","coordinates":[30.515226,50.514874]}},{"type":"Feature","properties":{},"geometry":{"type":"Point","coordinates":[30.455316,50.524955]}},{"type":"Feature","properties":{},"geometry":{"type":"Point","coordinates":[30.508251,50.509661]}},{"type":"Feature","properties":{},"geometry":{"type":"Point","coordinates":[30.492531,50.5203]}},{"type":"Feature","properties":{},"geometry":{"type":"Point","coordinates":[30.509138,50.514383]}},{"type":"Feature","properties":{},"geometry":{"type":"Point","coordinates":[30.46168,50.568753]}},{"type":"Feature","properties":{},"geometry":{"type":"Point","coordinates":[30.498898,50.522771]}},{"type":"Feature","properties":{},"geometry":{"type":"Point","coordinates":[30.51089,50.497125]}},{"type":"Feature","properties":{},"geometry":{"type":"Point","coordinates":[30.351033,50.556365]}},{"type":"Feature","properties":{},"geometry":{"type":"Point","coordinates":[30.512596,50.520423]}},{"type":"Feature","properties":{},"geometry":{"type":"Point","coordinates":[30.510288,50.519569]}},{"type":"Feature","properties":{},"geometry":{"type":"Point","coordinates":[30.458314,50.502335]}},{"type":"Feature","properties":{},"geometry":{"type":"Point","coordinates":[30.495193,50.520047]}},{"type":"Feature","properties":{},"geometry":{"type":"Point","coordinates":[30.463328,50.521107]}},{"type":"Feature","properties":{},"geometry":{"type":"Point","coordinates":[30.479819,50.488405]}},{"type":"Feature","properties":{},"geometry":{"type":"Point","coordinates":[30.497504,50.502314]}},{"type":"Feature","properties":{},"geometry":{"type":"Point","coordinates":[30.485723,50.510951]}},{"type":"Feature","properties":{},"geometry":{"type":"Point","coordinates":[30.512479,50.510116]}},{"type":"Feature","properties":{},"geometry":{"type":"Point","coordinates":[30.494428,50.516337]}},{"type":"Feature","properties":{},"geometry":{"type":"Point","coordinates":[30.51184,50.519331]}},{"type":"Feature","properties":{},"geometry":{"type":"Point","coordinates":[30.511876,50.516689]}},{"type":"Feature","properties":{},"geometry":{"type":"Point","coordinates":[30.5009,50.526387]}},{"type":"Feature","properties":{},"geometry":{"type":"Point","coordinates":[30.507276,50.521028]}},{"type":"Feature","properties":{},"geometry":{"type":"Point","coordinates":[30.511395,50.520395]}},{"type":"Feature","properties":{},"geometry":{"type":"Point","coordinates":[30.492773,50.507819]}},{"type":"Feature","properties":{},"geometry":{"type":"Point","coordinates":[30.49918,50.498413]}},{"type":"Feature","properties":{},"geometry":{"type":"Point","coordinates":[30.458527,50.523492]}},{"type":"Feature","properties":{},"geometry":{"type":"Point","coordinates":[30.519037,50.498415]}},{"type":"Feature","properties":{},"geometry":{"type":"Point","coordinates":[30.52178,50.496392]}},{"type":"Feature","properties":{},"geometry":{"type":"Point","coordinates":[30.489048,50.542987]}},{"type":"Feature","properties":{},"geometry":{"type":"Point","coordinates":[30.499293,50.511468]}},{"type":"Feature","properties":{},"geometry":{"type":"Point","coordinates":[30.491779,50.513678]}},{"type":"Feature","properties":{},"geometry":{"type":"Point","coordinates":[30.505736,50.519639]}},{"type":"Feature","properties":{},"geometry":{"type":"Point","coordinates":[30.506516,50.516024]}},{"type":"Feature","properties":{},"geometry":{"type":"Point","coordinates":[30.486152,50.505566]}},{"type":"Feature","properties":{},"geometry":{"type":"Point","coordinates":[30.504201,50.496158]}},{"type":"Feature","properties":{},"geometry":{"type":"Point","coordinates":[30.507052,50.50382]}},{"type":"Feature","properties":{},"geometry":{"type":"Point","coordinates":[30.498355,50.485388]}},{"type":"Feature","properties":{},"geometry":{"type":"Point","coordinates":[30.500767,50.50433]}},{"type":"Feature","properties":{},"geometry":{"type":"Point","coordinates":[30.453606,50.518179]}},{"type":"Feature","properties":{},"geometry":{"type":"Point","coordinates":[30.51757,50.498449]}},{"type":"Feature","properties":{},"geometry":{"type":"Point","coordinates":[30.498259,50.522363]}},{"type":"Feature","properties":{},"geometry":{"type":"Point","coordinates":[30.507571,50.506136]}},{"type":"Feature","properties":{},"geometry":{"type":"Point","coordinates":[30.508107,50.513611]}},{"type":"Feature","properties":{},"geometry":{"type":"Point","coordinates":[30.503095,50.506237]}},{"type":"Feature","properties":{},"geometry":{"type":"Point","coordinates":[30.506413,50.506471]}},{"type":"Feature","properties":{},"geometry":{"type":"Point","coordinates":[30.518697,50.500251]}},{"type":"Feature","properties":{},"geometry":{"type":"Point","coordinates":[30.462918,50.521707]}},{"type":"Feature","properties":{},"geometry":{"type":"Point","coordinates":[30.451755,50.518209]}},{"type":"Feature","properties":{},"geometry":{"type":"Point","coordinates":[30.509134,50.503933]}},{"type":"Feature","properties":{},"geometry":{"type":"Point","coordinates":[30.46195,50.525833]}},{"type":"Feature","properties":{},"geometry":{"type":"Point","coordinates":[30.468001,50.520812]}},{"type":"Feature","properties":{},"geometry":{"type":"Point","coordinates":[30.48401,50.48861]}},{"type":"Feature","properties":{},"geometry":{"type":"Point","coordinates":[30.453228,50.519165]}},{"type":"Feature","properties":{},"geometry":{"type":"Point","coordinates":[30.47088,50.53545]}},{"type":"Feature","properties":{},"geometry":{"type":"Point","coordinates":[30.509769,50.496441]}},{"type":"Feature","properties":{},"geometry":{"type":"Point","coordinates":[30.511072,50.501793]}},{"type":"Feature","properties":{},"geometry":{"type":"Point","coordinates":[30.515647,50.522184]}},{"type":"Feature","properties":{},"geometry":{"type":"Point","coordinates":[30.339437,50.553317]}},{"type":"Feature","properties":{},"geometry":{"type":"Point","coordinates":[30.453972,50.526166]}},{"type":"Feature","properties":{},"geometry":{"type":"Point","coordinates":[30.507518,50.525019]}},{"type":"Feature","properties":{},"geometry":{"type":"Point","coordinates":[30.345938,50.543494]}},{"type":"Feature","properties":{},"geometry":{"type":"Point","coordinates":[30.524646,50.493943]}},{"type":"Feature","properties":{},"geometry":{"type":"Point","coordinates":[30.452479,50.521128]}},{"type":"Feature","properties":{},"geometry":{"type":"Point","coordinates":[30.498478,50.52285]}},{"type":"Feature","properties":{},"geometry":{"type":"Point","coordinates":[30.502459,50.519758]}},{"type":"Feature","properties":{},"geometry":{"type":"Point","coordinates":[30.512935,50.515349]}},{"type":"Feature","properties":{},"geometry":{"type":"Point","coordinates":[30.499402,50.522179]}},{"type":"Feature","properties":{},"geometry":{"type":"Point","coordinates":[30.469286,50.506025]}},{"type":"Feature","properties":{},"geometry":{"type":"Point","coordinates":[30.505252,50.522042]}},{"type":"Feature","properties":{},"geometry":{"type":"Point","coordinates":[30.461406,50.51647]}},{"type":"Feature","properties":{},"geometry":{"type":"Point","coordinates":[30.497864,50.486441]}},{"type":"Feature","properties":{},"geometry":{"type":"Point","coordinates":[30.498547,50.512233]}},{"type":"Feature","properties":{},"geometry":{"type":"Point","coordinates":[30.491007,50.543656]}},{"type":"Feature","properties":{},"geometry":{"type":"Point","coordinates":[30.45825,50.523682]}},{"type":"Feature","properties":{},"geometry":{"type":"Point","coordinates":[30.513658,50.493938]}},{"type":"Feature","properties":{},"geometry":{"type":"Point","coordinates":[30.495752,50.511259]}},{"type":"Feature","properties":{},"geometry":{"type":"Point","coordinates":[30.525647,50.492281]}},{"type":"Feature","properties":{},"geometry":{"type":"Point","coordinates":[30.341021,50.553426]}},{"type":"Feature","properties":{},"geometry":{"type":"Point","coordinates":[30.520198,50.497518]}},{"type":"Feature","properties":{},"geometry":{"type":"Point","coordinates":[30.364384,50.54983]}},{"type":"Feature","properties":{},"geometry":{"type":"Point","coordinates":[30.348593,50.556302]}},{"type":"Feature","properties":{},"geometry":{"type":"Point","coordinates":[30.503298,50.519982]}},{"type":"Feature","properties":{},"geometry":{"type":"Point","coordinates":[30.489076,50.522264]}},{"type":"Feature","properties":{},"geometry":{"type":"Point","coordinates":[30.459177,50.526364]}},{"type":"Feature","properties":{},"geometry":{"type":"Point","coordinates":[30.520419,50.498651]}},{"type":"Feature","properties":{},"geometry":{"type":"Point","coordinates":[30.488728,50.524563]}},{"type":"Feature","properties":{},"geometry":{"type":"Point","coordinates":[30.512194,50.521183]}},{"type":"Feature","properties":{},"geometry":{"type":"Point","coordinates":[30.495958,50.504465]}},{"type":"Feature","properties":{},"geometry":{"type":"Point","coordinates":[30.450471,50.514031]}},{"type":"Feature","properties":{},"geometry":{"type":"Point","coordinates":[30.51667,50.49389]}},{"type":"Feature","properties":{},"geometry":{"type":"Point","coordinates":[30.506573,50.520317]}},{"type":"Feature","properties":{},"geometry":{"type":"Point","coordinates":[30.495758,50.525045]}},{"type":"Feature","properties":{},"geometry":{"type":"Point","coordinates":[30.492489,50.511973]}},{"type":"Feature","properties":{},"geometry":{"type":"Point","coordinates":[30.49659,50.520514]}},{"type":"Feature","properties":{},"geometry":{"type":"Point","coordinates":[30.502926,50.507922]}},{"type":"Feature","properties":{},"geometry":{"type":"Point","coordinates":[30.507616,50.520294]}},{"type":"Feature","properties":{},"geometry":{"type":"Point","coordinates":[30.466362,50.521068]}},{"type":"Feature","properties":{},"geometry":{"type":"Point","coordinates":[30.521637,50.494127]}},{"type":"Feature","properties":{},"geometry":{"type":"Point","coordinates":[30.507166,50.502611]}},{"type":"Feature","properties":{},"geometry":{"type":"Point","coordinates":[30.506762,50.500589]}},{"type":"Feature","properties":{},"geometry":{"type":"Point","coordinates":[30.508939,50.500283]}}]}